{"type": "FeatureCollection", "features": [{"type": "Feature", "properties": {"regionId": "vinnytska-oblast", "name": "Вінницька міська громада", "cityId": "vinnytska-oblast__city"}, "geometry": {"type": "MultiPolygon", "coordinates": [[[[28.6069, 49.18], [28.598, 49.1815], [28.5895, 49.1774], [28.5839, 49.1769], [28.5755, 49.1798], [28.57, 49.1867], [28.562, 49.1871], [28.5483, 49.1958], [28.5272, 49.1883], [28.5147, 49.1993], [28.5077, 49.1955], [28.4942, 49.2076], [28.4872, 49.2025], [28.4807, 49.2012], [28.4667, 49.2008], [28.4569, 49.2036], [28.4643, 49.1948], [28.4608, 49.1909], [28.4505, 49.192], [28.4332, 49.1879], [28.4337, 49.193], [28.4417, 49.1945], [28.4439, 49.2016], [28.439, 49.2053], [28.4358, 49.2037], [28.4303, 49.2062], [28.4316, 49.2105], [28.4096, 49.2155], [28.4092, 49.2123], [28.3967, 49.213], [28.3928, 49.2098], [28.395, 49.208], [28.392, 49.2065], [28.3799, 49.2123], [28.3802, 49.2146], [28.3878, 49.2267], [28.3968, 49.2231], [28.4007, 49.2385], [28.404, 49.2436], [28.4137, 49.2403], [28.4144, 49.2356], [28.4268, 49.2354], [28.4246, 49.2375], [28.425, 49.2402], [28.431, 49.2447], [28.4353, 49.2402], [28.4365, 49.2365], [28.4395, 49.2365], [28.4408, 49.2432], [28.4372, 49.245], [28.4403, 49.2487], [28.4443, 49.2476], [28.4447, 49.2528], [28.443, 49.257], [28.4363, 49.2601], [28.4371, 49.2615], [28.4518, 49.2614], [28.4582, 49.2647], [28.4691, 49.2611], [28.4718, 49.2824], [28.4838, 49.2722], [28.4839, 49.2703], [28.4947, 49.2692], [28.5025, 49.2691], [28.5047, 49.2714], [28.5133, 49.2733], [28.5154, 49.2722], [28.5353, 49.2766], [28.5393, 49.2756], [28.5407, 49.2778], [28.5263, 49.2837], [28.5316, 49.294], [28.5477, 49.2885], [28.5499, 49.2936], [28.553, 49.2958], [28.5574, 49.3097], [28.5705, 49.3052], [28.5764, 49.3067], [28.5762, 49.3098], [28.5782, 49.31], [28.5846, 49.3074], [28.5989, 49.3074], [28.6024, 49.3118], [28.6197, 49.3076], [28.6271, 49.3139], [28.6561, 49.3029], [28.663, 49.2861], [28.6653, 49.2865], [28.6698, 49.2826], [28.666, 49.2819], [28.6667, 49.2798], [28.6746, 49.2771], [28.6832, 49.2782], [28.6913, 49.2758], [28.6965, 49.2722], [28.6942, 49.2686], [28.6906, 49.2679], [28.6989, 49.2644], [28.6948, 49.259], [28.6989, 49.2548], [28.752, 49.2497], [28.7526, 49.2415], [28.7495, 49.2213], [28.7314, 49.2224], [28.7287, 49.2176], [28.7294, 49.2095], [28.7173, 49.2107], [28.717, 49.2081], [28.7224, 49.2055], [28.7157, 49.2037], [28.715, 49.2011], [28.7062, 49.2026], [28.6925, 49.2078], [28.6745, 49.2112], [28.6688, 49.2064], [28.6651, 49.1997], [28.6571, 49.199], [28.6445, 49.2032], [28.6435, 49.1847], [28.6315, 49.1832], [28.6284, 49.185], [28.6069, 49.18]]]]}}, {"type": "Feature", "properties": {"regionId": "volynska-oblast", "name": "Луцька міська громада", "cityId": "volynska-oblast__city"}, "geometry": {"type": "MultiPolygon", "coordinates": [[[[25.1458, 50.7126], [25.1418, 50.7076], [25.139, 50.6953], [25.1292, 50.6906], [25.1199, 50.6808], [25.1101, 50.6814], [25.1014, 50.6762], [25.1035, 50.6724], [25.0956, 50.6756], [25.0842, 50.6752], [25.0783, 50.6798], [25.0694, 50.6829], [25.0516, 50.6829], [25.0269, 50.6855], [25.0217, 50.6839], [25.0032, 50.7073], [24.9963, 50.7184], [25.0067, 50.7166], [25.0244, 50.717], [25.0417, 50.7153], [25.0668, 50.7171], [25.0844, 50.7204], [25.0928, 50.7274], [25.1035, 50.7311], [25.1019, 50.7351], [25.0962, 50.7388], [25.095, 50.7451], [25.0904, 50.7475], [25.0913, 50.7539], [25.099, 50.7629], [25.0877, 50.7712], [25.0857, 50.7748], [25.0781, 50.7807], [25.0737, 50.7878], [25.0728, 50.7926], [25.0789, 50.7948], [25.1056, 50.8111], [25.1273, 50.8044], [25.1367, 50.8117], [25.139, 50.8164], [25.1389, 50.8334], [25.1231, 50.8446], [25.1194, 50.85], [25.1169, 50.8545], [25.1152, 50.8635], [25.1199, 50.8669], [25.1307, 50.8693], [25.1337, 50.8685], [25.1375, 50.8587], [25.1408, 50.8547], [25.1465, 50.8514], [25.1589, 50.8479], [25.1663, 50.8529], [25.1718, 50.8542], [25.1766, 50.8489], [25.1795, 50.8482], [25.2022, 50.8488], [25.2032, 50.8547], [25.2154, 50.8592], [25.2308, 50.8622], [25.2362, 50.849], [25.2547, 50.8543], [25.2568, 50.8533], [25.2586, 50.8448], [25.2637, 50.841], [25.2687, 50.8438], [25.2829, 50.8418], [25.2807, 50.8534], [25.297, 50.8534], [25.3054, 50.8564], [25.3122, 50.8661], [25.3058, 50.8695], [25.3007, 50.87], [25.2966, 50.8732], [25.3137, 50.8835], [25.3291, 50.8794], [25.3375, 50.8926], [25.3405, 50.8948], [25.3494, 50.8964], [25.3653, 50.886], [25.3929, 50.8736], [25.3929, 50.8672], [25.3897, 50.8636], [25.3973, 50.8592], [25.3974, 50.8541], [25.4304, 50.8394], [25.4245, 50.8307], [25.4311, 50.8238], [25.4473, 50.8158], [25.4731, 50.8149], [25.469, 50.8042], [25.455, 50.7967], [25.4391, 50.7925], [25.4248, 50.7787], [25.4216, 50.7812], [25.398, 50.7764], [25.3787, 50.7708], [25.3757, 50.7676], [25.3773, 50.7625], [25.388, 50.763], [25.3934, 50.7609], [25.3934, 50.7582], [25.3956, 50.7574], [25.3933, 50.7567], [25.3946, 50.7554], [25.3904, 50.7512], [25.3941, 50.7507], [25.3957, 50.742], [25.3919, 50.7418], [25.3922, 50.7395], [25.383, 50.7385], [25.3832, 50.736], [25.4069, 50.7377], [25.405, 50.7346], [25.375, 50.7207], [25.372, 50.7223], [25.3697, 50.727], [25.3634, 50.7268], [25.3632, 50.7352], [25.3518, 50.7376], [25.345, 50.7422], [25.3427, 50.7383], [25.3254, 50.7372], [25.3154, 50.7314], [25.3126, 50.7285], [25.3174, 50.7259], [25.3233, 50.7259], [25.3274, 50.7289], [25.3317, 50.7275], [25.3286, 50.7234], [25.3256, 50.7235], [25.3241, 50.72], [25.3264, 50.7188], [25.3229, 50.7187], [25.3207, 50.7164], [25.3276, 50.7169], [25.3278, 50.7139], [25.3249, 50.7132], [25.3248, 50.7111], [25.3211, 50.7102], [25.321, 50.7066], [25.3277, 50.7055], [25.3318, 50.7091], [25.3333, 50.7086], [25.314, 50.6843], [25.3124, 50.6848], [25.3122, 50.689], [25.2986, 50.6905], [25.2975, 50.6939], [25.298, 50.6999], [25.2956, 50.7041], [25.305, 50.7064], [25.3057, 50.7128], [25.2988, 50.7141], [25.3005, 50.7161], [25.2916, 50.7177], [25.2871, 50.7152], [25.2841, 50.7163], [25.2857, 50.7193], [25.2788, 50.7208], [25.2325, 50.7197], [25.2062, 50.7173], [25.1742, 50.7094], [25.1695, 50.7094], [25.1607, 50.7139], [25.1458, 50.7126]]]]}}, {"type": "Feature", "properties": {"regionId": "dnipropetrovska-oblast", "name": "Дніпровська міська громада", "cityId": "dnipropetrovska-oblast__city"}, "geometry": {"type": "MultiPolygon", "coordinates": [[[[35.0675, 48.3488], [35.0602, 48.3735], [35.1135, 48.3745], [35.1267, 48.3495], [35.0675, 48.3488]]], [[[35.0178, 48.5635], [35.0315, 48.5559], [35.0164, 48.5443], [35.0184, 48.5428], [35.0171, 48.5417], [35.0292, 48.5349], [35.0369, 48.5394], [35.0459, 48.534], [35.0567, 48.5367], [35.0831, 48.5285], [35.091, 48.5413], [35.0959, 48.5412], [35.0951, 48.5375], [35.1024, 48.5339], [35.112, 48.5453], [35.1243, 48.5412], [35.1227, 48.5391], [35.1274, 48.537], [35.1232, 48.5257], [35.125, 48.5134], [35.1223, 48.5087], [35.1331, 48.5028], [35.152, 48.5003], [35.158, 48.5044], [35.1629, 48.5056], [35.1798, 48.5052], [35.1866, 48.5071], [35.1903, 48.5052], [35.2027, 48.5078], [35.2064, 48.5051], [35.2104, 48.4988], [35.1946, 48.4951], [35.1982, 48.49], [35.1966, 48.4893], [35.2239, 48.4635], [35.2406, 48.4527], [35.2254, 48.4448], [35.23, 48.439], [35.2394, 48.4354], [35.2355, 48.4276], [35.2195, 48.4316], [35.2147, 48.4355], [35.2146, 48.4331], [35.2124, 48.4323], [35.212, 48.4304], [35.2067, 48.4291], [35.205, 48.4265], [35.1962, 48.4269], [35.1923, 48.431], [35.1951, 48.4327], [35.1915, 48.4334], [35.1945, 48.4365], [35.1925, 48.4378], [35.1921, 48.4436], [35.2073, 48.4444], [35.2056, 48.4523], [35.1948, 48.4603], [35.1851, 48.4569], [35.1612, 48.4731], [35.1553, 48.4707], [35.146, 48.4593], [35.1436, 48.4528], [35.1461, 48.4459], [35.1506, 48.4444], [35.1451, 48.4426], [35.1458, 48.4391], [35.1441, 48.4371], [35.1491, 48.4201], [35.15, 48.4097], [35.1547, 48.4014], [35.1548, 48.3974], [35.1508, 48.3966], [35.1499, 48.3942], [35.1365, 48.3934], [35.1066, 48.3965], [35.0946, 48.3864], [35.0881, 48.3909], [35.0885, 48.3948], [35.08, 48.3982], [35.0655, 48.3968], [35.0538, 48.3919], [35.0553, 48.3902], [35.041, 48.3888], [35.0343, 48.3919], [35.0188, 48.3889], [35.0115, 48.3787], [35.0073, 48.3755], [35.0104, 48.3642], [34.9906, 48.3635], [34.9913, 48.3674], [34.9691, 48.367], [34.9684, 48.378], [34.9791, 48.3826], [34.9807, 48.39], [34.9593, 48.3898], [34.9555, 48.3979], [34.9603, 48.4008], [34.9588, 48.4016], [34.954, 48.3987], [34.9387, 48.4049], [34.9389, 48.4027], [34.9349, 48.3987], [34.9301, 48.3994], [34.9314, 48.4021], [34.9016, 48.4028], [34.9016, 48.4051], [34.8997, 48.4057], [34.8997, 48.4105], [34.9026, 48.4107], [34.9033, 48.414], [34.8989, 48.4154], [34.9017, 48.4226], [34.9256, 48.4191], [34.9268, 48.4212], [34.9208, 48.424], [34.9228, 48.4263], [34.9251, 48.4255], [34.9271, 48.427], [34.9294, 48.4258], [34.9296, 48.422], [34.9336, 48.4219], [34.9414, 48.4267], [34.946, 48.4355], [34.9334, 48.439], [34.9284, 48.4438], [34.9147, 48.4479], [34.8964, 48.4383], [34.8962, 48.4411], [34.8859, 48.4447], [34.8859, 48.4477], [34.8818, 48.4477], [34.881, 48.4411], [34.8784, 48.4416], [34.8703, 48.4509], [34.8643, 48.4511], [34.8579, 48.4448], [34.8565, 48.4406], [34.8451, 48.4351], [34.828, 48.4319], [34.8271, 48.4308], [34.8289, 48.4279], [34.8142, 48.4216], [34.8105, 48.425], [34.8092, 48.43], [34.8012, 48.4294], [34.8014, 48.426], [34.7987, 48.4248], [34.7915, 48.4278], [34.7957, 48.4289], [34.7915, 48.4329], [34.7838, 48.4272], [34.7797, 48.4296], [34.7816, 48.4311], [34.7835, 48.4305], [34.7867, 48.4335], [34.7802, 48.4399], [34.7608, 48.4399], [34.7595, 48.453], [34.7695, 48.4744], [34.7513, 48.4839], [34.7652, 48.4851], [34.7664, 48.4896], [34.7874, 48.4822], [34.8009, 48.482], [34.8235, 48.4897], [34.8385, 48.4922], [34.8762, 48.5125], [34.8763, 48.5219], [34.8986, 48.5225], [34.9076, 48.5179], [34.9141, 48.5181], [34.915, 48.5196], [34.9306, 48.5173], [34.9318, 48.5187], [34.8878, 48.5298], [34.8874, 48.5437], [34.8805, 48.5448], [34.8813, 48.5529], [34.8796, 48.5535], [34.8796, 48.559], [34.8946, 48.5589], [34.8953, 48.5541], [34.9143, 48.5484], [34.9126, 48.5456], [34.9212, 48.5418], [34.9229, 48.5431], [34.925, 48.5411], [34.9304, 48.5446], [34.9226, 48.551], [34.9181, 48.551], [34.9092, 48.5564], [34.9173, 48.559], [34.9207, 48.5619], [34.9309, 48.5644], [34.9385, 48.5622], [34.9441, 48.5571], [34.9608, 48.5539], [34.9677, 48.549], [34.9679, 48.5504], [34.9631, 48.5551], [34.9659, 48.5566], [34.9797, 48.5483], [34.9893, 48.5458], [35.0004, 48.5539], [35.0178, 48.5635]]]]}}, {"type": "Feature", "properties": {"regionId": "donetska-oblast", "name": "Донецька територіальна громада", "cityId": "donetska-oblast__city"}, "geometry": {"type": "MultiPolygon", "coordinates": [[[[38.1298, 47.8292], [38.1266, 47.8316], [38.1208, 47.8298], [38.1135, 47.8314], [38.0976, 47.8369], [38.09, 47.8317], [38.0927, 47.8286], [38.0945, 47.8214], [38.0637, 47.8214], [38.0631, 47.8135], [38.0286, 47.8128], [38.0312, 47.8244], [38.0286, 47.8281], [38.0291, 47.832], [38.0059, 47.8445], [38.0037, 47.8533], [37.9999, 47.853], [37.9985, 47.8504], [37.9932, 47.8506], [37.9918, 47.8539], [37.9767, 47.8568], [37.9649, 47.8616], [37.964, 47.8595], [37.9588, 47.8607], [37.9588, 47.8592], [37.9658, 47.8554], [37.9646, 47.8543], [37.9621, 47.8536], [37.9483, 47.8572], [37.9358, 47.8485], [37.9314, 47.8498], [37.9221, 47.8406], [37.934, 47.8346], [37.9099, 47.8333], [37.9132, 47.8413], [37.9129, 47.8532], [37.9039, 47.8683], [37.9128, 47.8716], [37.9071, 47.8849], [37.8995, 47.8876], [37.8792, 47.8872], [37.872, 47.896], [37.8628, 47.8953], [37.8613, 47.9038], [37.8529, 47.9076], [37.8103, 47.9033], [37.8219, 47.8853], [37.8142, 47.8833], [37.7963, 47.8839], [37.7922, 47.8967], [37.7996, 47.8975], [37.7985, 47.9033], [37.783, 47.9032], [37.7207, 47.8973], [37.7202, 47.9027], [37.6945, 47.893], [37.6939, 47.8998], [37.6808, 47.9099], [37.6612, 47.9097], [37.6563, 47.9197], [37.6296, 47.9192], [37.6285, 47.9229], [37.6109, 47.9232], [37.6078, 47.89], [37.5942, 47.8872], [37.6024, 47.8658], [37.5472, 47.8678], [37.547, 47.9079], [37.5424, 47.91], [37.5403, 47.9176], [37.5493, 47.9229], [37.5539, 47.9318], [37.5289, 47.9399], [37.5286, 47.9462], [37.5325, 47.9457], [37.5426, 47.9683], [37.5601, 47.9771], [37.5538, 47.9794], [37.552, 48.0083], [37.5619, 48.0083], [37.5625, 48.0361], [37.5612, 48.0378], [37.5577, 48.0381], [37.5573, 48.052], [37.6144, 48.0562], [37.6243, 48.0061], [37.6525, 47.9985], [37.6621, 47.9979], [37.6622, 47.9991], [37.6787, 48.0032], [37.6728, 48.0052], [37.6696, 48.0098], [37.674, 48.0151], [37.6681, 48.0197], [37.6594, 48.0202], [37.6562, 48.0334], [37.6681, 48.0422], [37.6872, 48.0542], [37.6948, 48.0506], [37.7061, 48.0585], [37.7106, 48.0566], [37.7291, 48.0584], [37.7274, 48.0671], [37.7343, 48.0677], [37.7342, 48.0702], [37.7229, 48.0708], [37.7227, 48.0723], [37.7151, 48.0719], [37.7147, 48.0731], [37.7535, 48.0793], [37.7543, 48.0757], [37.7783, 48.0757], [37.7846, 48.0787], [37.7866, 48.0816], [37.7861, 48.0884], [37.7881, 48.0885], [37.8121, 48.0726], [37.8195, 48.0696], [37.819, 48.0612], [37.8145, 48.0526], [37.814, 48.0483], [37.8195, 48.0415], [37.8193, 48.0332], [37.8234, 48.0235], [37.8376, 48.0253], [37.8459, 48.0298], [37.8609, 48.0272], [37.8872, 48.0284], [37.8858, 48.0193], [37.8895, 48.0203], [37.893, 48.0159], [37.8938, 48.0114], [37.8973, 48.0092], [37.8997, 48.0046], [37.9008, 47.9951], [37.9056, 47.995], [37.909, 47.9885], [37.9222, 47.9906], [37.9233, 47.9868], [37.9172, 47.9857], [37.9226, 47.9842], [37.9278, 47.9796], [37.9351, 47.9762], [37.9407, 47.9698], [37.957, 47.9736], [37.9699, 47.9666], [37.9747, 47.9665], [37.9789, 47.9724], [37.9864, 47.9758], [37.9911, 47.9748], [37.993, 47.9737], [37.9876, 47.9628], [37.9852, 47.9619], [37.9895, 47.9552], [37.9857, 47.9536], [37.9961, 47.9411], [37.9901, 47.9368], [37.9939, 47.9333], [37.9884, 47.9216], [38.0117, 47.911], [38.027, 47.9127], [38.028, 47.9067], [38.0588, 47.9068], [38.0594, 47.9013], [38.1071, 47.9003], [38.1108, 47.9014], [38.1123, 47.8938], [38.1187, 47.8907], [38.1221, 47.8907], [38.1232, 47.8856], [38.1171, 47.8838], [38.1104, 47.8767], [38.1105, 47.8747], [38.127, 47.8716], [38.1269, 47.8702], [38.1203, 47.8696], [38.1251, 47.8658], [38.125, 47.8639], [38.1217, 47.8616], [38.1475, 47.8509], [38.1468, 47.8481], [38.1727, 47.8404], [38.1827, 47.8354], [38.1599, 47.815], [38.1428, 47.8065], [38.1268, 47.8201], [38.1316, 47.8229], [38.1298, 47.8292]]]]}}, {"type": "Feature", "properties": {"regionId": "zhytomyrska-oblast", "name": "Житомирська міська громада", "cityId": "zhytomyrska-oblast__city"}, "geometry": {"type": "MultiPolygon", "coordinates": [[[[28.7565, 50.2838], [28.7443, 50.2836], [28.744, 50.2805], [28.7346, 50.2796], [28.7375, 50.2753], [28.7357, 50.2713], [28.7257, 50.2669], [28.7406, 50.2561], [28.7415, 50.249], [28.7512, 50.2475], [28.74, 50.2324], [28.7366, 50.2335], [28.7337, 50.2267], [28.7282, 50.2271], [28.7293, 50.2262], [28.7278, 50.2234], [28.7086, 50.2242], [28.7032, 50.2268], [28.702, 50.2306], [28.6972, 50.2326], [28.6753, 50.2353], [28.6711, 50.2398], [28.6558, 50.2417], [28.6563, 50.2427], [28.6384, 50.2379], [28.6348, 50.2354], [28.628, 50.2362], [28.6285, 50.238], [28.624, 50.2386], [28.6177, 50.2359], [28.6146, 50.2373], [28.6085, 50.233], [28.5985, 50.2311], [28.5988, 50.2397], [28.6135, 50.24], [28.6192, 50.2439], [28.6155, 50.2483], [28.621, 50.2633], [28.6157, 50.2686], [28.6123, 50.2652], [28.608, 50.2664], [28.6046, 50.2708], [28.597, 50.2728], [28.6011, 50.2748], [28.5991, 50.2783], [28.6018, 50.28], [28.5908, 50.2806], [28.5943, 50.2873], [28.5989, 50.2858], [28.6004, 50.2888], [28.6081, 50.2883], [28.6054, 50.2906], [28.6093, 50.2908], [28.6089, 50.295], [28.6027, 50.2977], [28.6042, 50.3042], [28.6015, 50.3072], [28.6018, 50.309], [28.6094, 50.3084], [28.6133, 50.3032], [28.6273, 50.2928], [28.6312, 50.2947], [28.6354, 50.2925], [28.6406, 50.2954], [28.6383, 50.3059], [28.6523, 50.3043], [28.6614, 50.3124], [28.6703, 50.3106], [28.6758, 50.3074], [28.6687, 50.3056], [28.6661, 50.3026], [28.6694, 50.2998], [28.6627, 50.296], [28.6751, 50.2945], [28.6785, 50.2929], [28.6782, 50.2904], [28.6735, 50.2909], [28.6731, 50.2896], [28.676, 50.2875], [28.675, 50.2862], [28.6654, 50.2851], [28.6678, 50.2835], [28.6673, 50.2816], [28.663, 50.2806], [28.6628, 50.2773], [28.6647, 50.2765], [28.6722, 50.2761], [28.6749, 50.2812], [28.6781, 50.2835], [28.69, 50.2831], [28.6916, 50.2942], [28.7114, 50.2932], [28.7147, 50.2919], [28.7121, 50.2893], [28.7201, 50.2846], [28.7557, 50.2897], [28.7565, 50.2838]]], [[[28.7961, 50.333], [28.7958, 50.319], [28.7858, 50.3169], [28.7911, 50.3083], [28.7516, 50.2993], [28.7461, 50.3041], [28.741, 50.3042], [28.7391, 50.3068], [28.7337, 50.3051], [28.7326, 50.313], [28.7354, 50.3192], [28.727, 50.3212], [28.7248, 50.3242], [28.7238, 50.3336], [28.7193, 50.3338], [28.7171, 50.3355], [28.7165, 50.3427], [28.7122, 50.3437], [28.733, 50.3526], [28.7696, 50.3546], [28.7779, 50.3522], [28.796, 50.3415], [28.7961, 50.333]]]]}}, {"type": "Feature", "properties": {"regionId": "zakarpatska-oblast", "name": "Ужгородська міська громада", "cityId": "zakarpatska-oblast__city"}, "geometry": {"type": "MultiPolygon", "coordinates": [[[[22.3484, 48.6461], [22.3388, 48.6322], [22.3374, 48.6219], [22.3696, 48.6055], [22.3725, 48.6023], [22.3724, 48.5971], [22.364, 48.5875], [22.3613, 48.5978], [22.3469, 48.6006], [22.3354, 48.5971], [22.3257, 48.601], [22.3161, 48.5979], [22.3185, 48.5947], [22.322, 48.595], [22.3271, 48.5915], [22.3291, 48.5887], [22.3275, 48.5884], [22.3288, 48.5851], [22.3315, 48.5848], [22.3325, 48.5809], [22.3284, 48.5739], [22.3203, 48.5738], [22.3205, 48.5818], [22.3147, 48.593], [22.3098, 48.5922], [22.3087, 48.5864], [22.294, 48.5867], [22.2879, 48.5885], [22.291, 48.598], [22.2803, 48.6013], [22.2752, 48.6006], [22.2559, 48.6097], [22.2552, 48.6126], [22.2452, 48.6096], [22.2336, 48.6153], [22.2317, 48.6126], [22.2243, 48.6088], [22.2173, 48.6098], [22.2163, 48.6053], [22.2128, 48.6062], [22.2106, 48.6124], [22.2072, 48.6162], [22.2154, 48.6212], [22.2292, 48.6203], [22.2393, 48.6267], [22.2482, 48.6376], [22.2498, 48.6472], [22.2651, 48.6534], [22.2647, 48.6549], [22.2692, 48.655], [22.2833, 48.6618], [22.289, 48.6663], [22.2884, 48.6682], [22.29, 48.6696], [22.2922, 48.6699], [22.2999, 48.6592], [22.32, 48.653], [22.3256, 48.647], [22.331, 48.6444], [22.3365, 48.6481], [22.3484, 48.6461]]]]}}, {"type": "Feature", "properties": {"regionId": "zaporizka-oblast", "name": "Запорізька міська громада", "cityId": "zaporizka-oblast__city"}, "geometry": {"type": "MultiPolygon", "coordinates": [[[[35.0495, 47.8293], [35.0474, 47.8261], [35.0674, 47.8154], [35.0596, 47.8108], [35.053, 47.8124], [35.0486, 47.816], [35.0507, 47.8099], [35.0563, 47.8105], [35.0564, 47.8091], [35.0525, 47.8083], [35.0547, 47.8063], [35.0536, 47.8059], [35.045, 47.8051], [35.035, 47.808], [35.0311, 47.8134], [35.0273, 47.815], [35.0253, 47.8145], [35.0307, 47.8105], [35.0284, 47.8099], [35.0251, 47.812], [35.0221, 47.8111], [35.0046, 47.8185], [34.9973, 47.8188], [34.9958, 47.8253], [35.0122, 47.8316], [35.0075, 47.8384], [35.0132, 47.8404], [35.0165, 47.8381], [35.0145, 47.8355], [35.02, 47.8322], [35.0152, 47.8296], [35.018, 47.8279], [35.0231, 47.8309], [35.027, 47.8313], [35.0273, 47.821], [35.0322, 47.8261], [35.0345, 47.82], [35.0363, 47.8204], [35.0367, 47.8229], [35.0358, 47.8305], [35.04, 47.8326], [35.0392, 47.8341], [35.0415, 47.8355], [35.0201, 47.8462], [35.009, 47.8442], [35.004, 47.8499], [35.0039, 47.8521], [35.0068, 47.8542], [35.0041, 47.8552], [34.9989, 47.8533], [34.9872, 47.8556], [34.9858, 47.8589], [34.9901, 47.8602], [34.9931, 47.8633], [34.9904, 47.8755], [34.9961, 47.8776], [35.0004, 47.8834], [34.9923, 47.8858], [34.9926, 47.8912], [35.0001, 47.8914], [35.011, 47.8884], [35.0254, 47.8878], [35.0292, 47.8862], [35.0367, 47.8893], [35.0506, 47.8897], [35.0523, 47.8923], [35.0545, 47.8914], [35.0587, 47.895], [35.0657, 47.8925], [35.0671, 47.8934], [35.0756, 47.8892], [35.0853, 47.8985], [35.0949, 47.8949], [35.0969, 47.8966], [35.095, 47.9], [35.0973, 47.902], [35.0883, 47.902], [35.0834, 47.9053], [35.086, 47.9335], [35.0849, 47.9336], [35.0851, 47.9469], [35.0883, 47.9492], [35.1292, 47.9542], [35.1387, 47.9333], [35.1411, 47.9329], [35.1442, 47.9107], [35.1406, 47.9103], [35.1404, 47.9089], [35.1436, 47.9103], [35.1543, 47.9105], [35.1553, 47.9143], [35.1628, 47.9201], [35.1638, 47.9189], [35.1575, 47.9143], [35.1569, 47.9116], [35.1681, 47.911], [35.183, 47.9074], [35.2007, 47.9089], [35.2093, 47.9127], [35.2139, 47.9129], [35.2142, 47.9075], [35.2106, 47.9048], [35.2031, 47.9029], [35.187, 47.9029], [35.1678, 47.9076], [35.163, 47.9075], [35.1731, 47.9022], [35.1852, 47.9007], [35.1834, 47.8961], [35.207, 47.8967], [35.2446, 47.9018], [35.2462, 47.9021], [35.2472, 47.906], [35.2512, 47.9063], [35.2518, 47.9021], [35.2549, 47.902], [35.2554, 47.8839], [35.3298, 47.8906], [35.3373, 47.8658], [35.3423, 47.8665], [35.3438, 47.8618], [35.3661, 47.8626], [35.3692, 47.8466], [35.3639, 47.8484], [35.3591, 47.8481], [35.3507, 47.8427], [35.339, 47.8408], [35.3365, 47.838], [35.3135, 47.8366], [35.3116, 47.8333], [35.3072, 47.8318], [35.3116, 47.8179], [35.306, 47.8172], [35.304, 47.8141], [35.3002, 47.814], [35.2974, 47.8158], [35.285, 47.8141], [35.2835, 47.8192], [35.2725, 47.8188], [35.271, 47.8226], [35.2499, 47.8183], [35.2559, 47.8149], [35.2569, 47.8114], [35.2547, 47.8083], [35.2496, 47.8091], [35.2628, 47.8005], [35.2586, 47.7997], [35.2603, 47.7943], [35.2635, 47.7941], [35.2648, 47.7884], [35.2916, 47.7856], [35.3309, 47.77], [35.2742, 47.7628], [35.2751, 47.759], [35.2244, 47.7527], [35.2115, 47.7595], [35.1982, 47.7571], [35.1965, 47.7556], [35.1749, 47.7553], [35.1391, 47.7743], [35.1281, 47.7739], [35.1235, 47.7799], [35.12, 47.7796], [35.1206, 47.7814], [35.115, 47.7863], [35.1128, 47.7839], [35.1082, 47.785], [35.1072, 47.7864], [35.1103, 47.787], [35.1092, 47.7892], [35.105, 47.7891], [35.1021, 47.7923], [35.0917, 47.7921], [35.0909, 47.7956], [35.0938, 47.7965], [35.0923, 47.7989], [35.0943, 47.802], [35.0875, 47.8043], [35.0847, 47.8031], [35.0812, 47.8044], [35.0847, 47.8085], [35.0763, 47.8129], [35.0734, 47.8103], [35.0678, 47.8133], [35.0708, 47.816], [35.0657, 47.8175], [35.0658, 47.8189], [35.0572, 47.8234], [35.0577, 47.8252], [35.0495, 47.8293]]]]}}, {"type": "Feature", "properties": {"regionId": "ivano-frankivska-oblast", "name": "Івано-Франківська міська громада", "cityId": "ivano-frankivska-oblast__city"}, "geometry": {"type": "MultiPolygon", "coordinates": [[[[24.7542, 48.7664], [24.7421, 48.7487], [24.7238, 48.7399], [24.6931, 48.7509], [24.664, 48.7545], [24.6419, 48.7603], [24.6432, 48.7765], [24.6155, 48.7861], [24.6207, 48.7902], [24.6486, 48.7966], [24.6589, 48.7975], [24.6587, 48.8004], [24.6564, 48.8025], [24.6589, 48.8091], [24.6581, 48.8193], [24.669, 48.8339], [24.6489, 48.8446], [24.6223, 48.8535], [24.623, 48.8668], [24.6314, 48.8748], [24.6261, 48.8779], [24.6328, 48.8831], [24.6219, 48.888], [24.6308, 48.8923], [24.6329, 48.8994], [24.643, 48.9019], [24.6402, 48.9029], [24.6491, 48.9112], [24.6585, 48.9135], [24.6603, 48.9126], [24.6734, 48.9165], [24.6757, 48.9186], [24.677, 48.9237], [24.6805, 48.9266], [24.6784, 48.9273], [24.6807, 48.9294], [24.6786, 48.931], [24.6806, 48.9348], [24.6724, 48.9408], [24.6682, 48.9397], [24.6597, 48.941], [24.6442, 48.9475], [24.6435, 48.9523], [24.6403, 48.9544], [24.6438, 48.9574], [24.6529, 48.9587], [24.6573, 48.9523], [24.6641, 48.9498], [24.67, 48.9544], [24.6739, 48.9517], [24.6772, 48.9539], [24.6879, 48.9488], [24.6921, 48.9526], [24.7062, 48.9479], [24.7085, 48.9509], [24.7145, 48.9512], [24.7169, 48.9439], [24.7338, 48.9511], [24.7359, 48.9589], [24.7406, 48.9631], [24.7379, 48.9707], [24.7417, 48.9689], [24.7299, 48.9842], [24.7269, 48.993], [24.7272, 48.9964], [24.7369, 48.9973], [24.7432, 48.9916], [24.7454, 48.9916], [24.7494, 48.9976], [24.7603, 48.9936], [24.7654, 48.9944], [24.7666, 48.998], [24.7715, 48.9971], [24.7807, 48.9991], [24.7841, 48.9973], [24.7922, 48.9971], [24.7951, 48.9942], [24.8006, 48.9926], [24.8072, 48.9932], [24.8235, 48.999], [24.828, 48.9966], [24.8299, 48.9936], [24.843, 48.9899], [24.8478, 48.9795], [24.8574, 48.9729], [24.858, 48.9691], [24.8536, 48.9656], [24.8507, 48.9595], [24.8475, 48.9568], [24.8529, 48.9491], [24.8532, 48.9465], [24.8511, 48.9456], [24.8536, 48.9402], [24.8434, 48.9309], [24.8423, 48.928], [24.8353, 48.9257], [24.8214, 48.9074], [24.81, 48.9086], [24.8052, 48.8959], [24.7999, 48.8941], [24.7885, 48.8841], [24.7987, 48.8799], [24.7969, 48.8755], [24.7983, 48.8733], [24.7959, 48.8692], [24.7807, 48.8655], [24.7677, 48.8509], [24.7557, 48.8418], [24.7695, 48.8419], [24.7705, 48.8325], [24.768, 48.8292], [24.7468, 48.814], [24.7231, 48.7851], [24.7248, 48.7733], [24.7338, 48.773], [24.7362, 48.7749], [24.7453, 48.7689], [24.7542, 48.7664]]]]}}, {"type": "Feature", "properties": {"regionId": "kirovohradska-oblast", "name": "Кропивницька міська громада", "cityId": "kirovohradska-oblast__city"}, "geometry": {"type": "MultiPolygon", "coordinates": [[[[32.2753, 48.5812], [32.2817, 48.581], [32.2746, 48.5578], [32.2809, 48.5592], [32.2868, 48.5566], [32.3073, 48.5457], [32.3074, 48.543], [32.3446, 48.5567], [32.3526, 48.553], [32.3532, 48.5409], [32.3075, 48.5386], [32.308, 48.5362], [32.3097, 48.5356], [32.31, 48.5232], [32.3121, 48.5233], [32.3126, 48.5218], [32.3225, 48.5257], [32.3236, 48.5168], [32.3137, 48.5165], [32.3139, 48.5148], [32.3046, 48.5132], [32.2992, 48.5073], [32.2988, 48.504], [32.3031, 48.5027], [32.3036, 48.501], [32.3204, 48.5016], [32.321, 48.4985], [32.3476, 48.4954], [32.3482, 48.4928], [32.31, 48.4925], [32.3056, 48.4893], [32.3059, 48.4869], [32.3112, 48.49], [32.3127, 48.4851], [32.309, 48.485], [32.3171, 48.4817], [32.3062, 48.4775], [32.3057, 48.4763], [32.3152, 48.4724], [32.3158, 48.4709], [32.3137, 48.4658], [32.3063, 48.4618], [32.3034, 48.4621], [32.3011, 48.4657], [32.2962, 48.4645], [32.2926, 48.4698], [32.2884, 48.4727], [32.2834, 48.4713], [32.2865, 48.4656], [32.2779, 48.4658], [32.2779, 48.4672], [32.2684, 48.4667], [32.2663, 48.4612], [32.2497, 48.4614], [32.2517, 48.4658], [32.2487, 48.4654], [32.2436, 48.4767], [32.2396, 48.4761], [32.2342, 48.4844], [32.2264, 48.4854], [32.2185, 48.4837], [32.2132, 48.4883], [32.212, 48.4913], [32.1902, 48.4854], [32.196, 48.5073], [32.1864, 48.5088], [32.1864, 48.5068], [32.1684, 48.5077], [32.1685, 48.5109], [32.1666, 48.5121], [32.1411, 48.5159], [32.1036, 48.5161], [32.1038, 48.5174], [32.1153, 48.5193], [32.1017, 48.5258], [32.1025, 48.5383], [32.1101, 48.538], [32.1105, 48.5414], [32.1229, 48.5415], [32.1237, 48.5445], [32.1438, 48.5447], [32.1447, 48.5223], [32.1369, 48.5224], [32.1367, 48.5188], [32.1751, 48.518], [32.1822, 48.5194], [32.1835, 48.5199], [32.1835, 48.5312], [32.181, 48.5299], [32.1809, 48.5273], [32.1745, 48.5278], [32.1747, 48.5315], [32.1711, 48.5329], [32.1694, 48.5389], [32.2158, 48.5411], [32.2156, 48.5532], [32.2128, 48.5516], [32.2116, 48.5568], [32.2069, 48.5572], [32.2044, 48.5628], [32.2065, 48.5646], [32.1974, 48.5645], [32.1975, 48.5658], [32.1939, 48.5662], [32.2017, 48.574], [32.2087, 48.5742], [32.2056, 48.5715], [32.207, 48.5699], [32.2202, 48.5695], [32.2223, 48.5706], [32.2207, 48.5732], [32.2234, 48.5742], [32.223, 48.5792], [32.225, 48.5792], [32.2231, 48.5841], [32.2282, 48.5843], [32.2296, 48.5788], [32.232, 48.5786], [32.2369, 48.5789], [32.2368, 48.581], [32.2414, 48.5813], [32.2415, 48.5787], [32.2576, 48.5811], [32.2753, 48.5812]]]]}}, {"type": "Feature", "properties": {"regionId": "luhanska-oblast", "name": "Луганська міська громада", "cityId": "luhanska-oblast__city"}, "geometry": {"type": "MultiPolygon", "coordinates": [[[[39.3688, 48.4299], [39.3659, 48.4255], [39.3361, 48.4234], [39.3325, 48.4345], [39.3364, 48.4431], [39.3231, 48.4642], [39.27, 48.4605], [39.2677, 48.4598], [39.2665, 48.4565], [39.2595, 48.4577], [39.253, 48.4484], [39.2201, 48.4438], [39.2188, 48.4556], [39.1932, 48.4545], [39.2002, 48.4608], [39.1834, 48.4599], [39.2023, 48.4753], [39.1935, 48.4772], [39.1907, 48.4971], [39.1289, 48.4948], [39.1298, 48.481], [39.1088, 48.4783], [39.1045, 48.4819], [39.1014, 48.4819], [39.0984, 48.4923], [39.094, 48.4926], [39.0841, 48.4989], [39.0808, 48.4941], [39.0739, 48.4974], [39.0639, 48.5135], [39.0635, 48.5182], [39.0666, 48.5261], [39.0777, 48.5288], [39.0823, 48.5316], [39.0831, 48.5349], [39.0809, 48.539], [39.0641, 48.5406], [39.0611, 48.5422], [39.0626, 48.5438], [39.1066, 48.5451], [39.1101, 48.5476], [39.1248, 48.547], [39.1344, 48.5517], [39.1377, 48.5552], [39.1295, 48.5581], [39.1188, 48.5647], [39.0991, 48.5666], [39.0992, 48.5693], [39.1046, 48.5774], [39.1155, 48.5845], [39.1183, 48.5908], [39.1143, 48.5919], [39.0912, 48.5907], [39.0794, 48.588], [39.0872, 48.5977], [39.0878, 48.601], [39.0676, 48.609], [39.0704, 48.6166], [39.0698, 48.6247], [39.0719, 48.6409], [39.0764, 48.648], [39.0765, 48.6521], [39.1038, 48.6508], [39.124, 48.6611], [39.1392, 48.6608], [39.1406, 48.6638], [39.1556, 48.6776], [39.1628, 48.6775], [39.166, 48.6904], [39.1782, 48.6855], [39.182, 48.6936], [39.1939, 48.7069], [39.1982, 48.7066], [39.2009, 48.7016], [39.2063, 48.7006], [39.2293, 48.7123], [39.2402, 48.7114], [39.2467, 48.7134], [39.2497, 48.7159], [39.2513, 48.7231], [39.2557, 48.7311], [39.2555, 48.7357], [39.253, 48.74], [39.2543, 48.744], [39.2674, 48.7437], [39.2706, 48.7465], [39.2705, 48.7522], [39.2734, 48.7544], [39.2793, 48.751], [39.2863, 48.751], [39.29, 48.7611], [39.2976, 48.7648], [39.3055, 48.7716], [39.3151, 48.7757], [39.3251, 48.777], [39.3275, 48.774], [39.3274, 48.7693], [39.3294, 48.7682], [39.3359, 48.7673], [39.3495, 48.7697], [39.3538, 48.767], [39.3524, 48.7634], [39.3462, 48.7601], [39.3451, 48.7565], [39.3497, 48.7451], [39.3557, 48.7411], [39.3574, 48.7379], [39.357, 48.7332], [39.3531, 48.7278], [39.3606, 48.7229], [39.3725, 48.7204], [39.3733, 48.7188], [39.3707, 48.7161], [39.3604, 48.7157], [39.3492, 48.7123], [39.349, 48.7105], [39.3564, 48.6998], [39.3774, 48.6877], [39.3884, 48.6852], [39.3913, 48.6798], [39.4113, 48.6725], [39.4137, 48.6678], [39.4103, 48.6593], [39.4111, 48.6579], [39.4225, 48.6587], [39.4541, 48.6544], [39.4508, 48.6476], [39.4522, 48.6432], [39.4562, 48.6395], [39.467, 48.6393], [39.468, 48.636], [39.4649, 48.632], [39.4685, 48.6281], [39.492, 48.6285], [39.4958, 48.6319], [39.5125, 48.6347], [39.5178, 48.633], [39.5188, 48.6276], [39.516, 48.6215], [39.5294, 48.6124], [39.5298, 48.6087], [39.527, 48.6037], [39.5279, 48.6001], [39.5366, 48.5955], [39.5365, 48.5929], [39.5301, 48.5899], [39.5313, 48.5857], [39.5444, 48.5844], [39.549, 48.5875], [39.551, 48.5952], [39.5561, 48.5981], [39.56, 48.5984], [39.5661, 48.5966], [39.5684, 48.5915], [39.566, 48.5838], [39.5721, 48.5804], [39.5748, 48.5804], [39.582, 48.588], [39.5919, 48.5928], [39.6, 48.5936], [39.6069, 48.5895], [39.6069, 48.5854], [39.6003, 48.582], [39.5983, 48.5785], [39.6002, 48.5754], [39.6039, 48.5744], [39.6119, 48.575], [39.6103, 48.5721], [39.61, 48.5576], [39.6135, 48.5347], [39.5874, 48.5336], [39.5872, 48.532], [39.5682, 48.5316], [39.5679, 48.5295], [39.556, 48.5296], [39.5465, 48.5352], [39.5141, 48.5339], [39.5141, 48.5365], [39.5048, 48.5376], [39.5056, 48.5405], [39.5043, 48.5438], [39.4947, 48.5442], [39.4805, 48.5376], [39.4436, 48.5289], [39.4389, 48.5301], [39.4347, 48.534], [39.435, 48.5482], [39.4103, 48.5488], [39.4107, 48.556], [39.4145, 48.5601], [39.4141, 48.565], [39.3815, 48.552], [39.3828, 48.5447], [39.415, 48.5389], [39.415, 48.532], [39.4036, 48.5311], [39.4084, 48.5217], [39.4047, 48.5214], [39.4051, 48.5152], [39.4016, 48.5124], [39.4005, 48.5082], [39.4011, 48.4777], [39.3628, 48.4788], [39.3626, 48.4662], [39.3673, 48.4324], [39.3688, 48.4299]]]]}}, {"type": "Feature", "properties": {"regionId": "lvivska-oblast", "name": "Львівська міська громада", "cityId": "lvivska-oblast__city"}, "geometry": {"type": "MultiPolygon", "coordinates": [[[[24.0909, 49.8651], [24.1059, 49.864], [24.1354, 49.866], [24.1483, 49.8575], [24.1699, 49.8551], [24.1902, 49.8504], [24.1972, 49.8472], [24.1937, 49.833], [24.1906, 49.8287], [24.1867, 49.8301], [24.1573, 49.8301], [24.1562, 49.8256], [24.1577, 49.8137], [24.1565, 49.8118], [24.1466, 49.8154], [24.1449, 49.8135], [24.1549, 49.8097], [24.1527, 49.8066], [24.1471, 49.8064], [24.1465, 49.8021], [24.1365, 49.8027], [24.1357, 49.8005], [24.1287, 49.8023], [24.1269, 49.7997], [24.1294, 49.7981], [24.1265, 49.7967], [24.1243, 49.7931], [24.1115, 49.7937], [24.0996, 49.7899], [24.0831, 49.7972], [24.0837, 49.7865], [24.0729, 49.7801], [24.0496, 49.7811], [24.0505, 49.7869], [24.0469, 49.7872], [24.0416, 49.7851], [24.0337, 49.7867], [24.0309, 49.7683], [24.0137, 49.7693], [24.0107, 49.795], [23.9814, 49.7987], [23.9816, 49.8011], [23.9802, 49.802], [23.9645, 49.8028], [23.9555, 49.8101], [23.9495, 49.8109], [23.9455, 49.8092], [23.9216, 49.8113], [23.9131, 49.8231], [23.9154, 49.8261], [23.9093, 49.8345], [23.9221, 49.8381], [23.9276, 49.8381], [23.9275, 49.8395], [23.9222, 49.8419], [23.9222, 49.8455], [23.9296, 49.8459], [23.9347, 49.85], [23.9501, 49.8466], [23.9573, 49.8484], [23.9606, 49.8518], [23.9401, 49.854], [23.9184, 49.8533], [23.9086, 49.8494], [23.8965, 49.8474], [23.8953, 49.8465], [23.8963, 49.8414], [23.9032, 49.8324], [23.8834, 49.832], [23.8738, 49.8348], [23.8611, 49.836], [23.8649, 49.8398], [23.8603, 49.8422], [23.866, 49.8478], [23.8731, 49.8449], [23.8913, 49.8531], [23.8888, 49.8617], [23.8712, 49.8611], [23.8685, 49.8646], [23.8661, 49.8736], [23.8618, 49.8788], [23.8756, 49.8844], [23.8807, 49.8882], [23.8877, 49.8988], [23.902, 49.8961], [23.9233, 49.8982], [23.9267, 49.9054], [23.924, 49.9096], [23.9249, 49.9117], [23.9324, 49.9166], [23.9324, 49.9215], [23.9354, 49.9256], [23.9302, 49.929], [23.9387, 49.937], [23.937, 49.938], [23.9263, 49.9275], [23.9227, 49.9275], [23.9195, 49.9307], [23.924, 49.9422], [23.9145, 49.946], [23.9132, 49.9486], [23.9137, 49.9564], [23.9096, 49.9552], [23.9066, 49.9613], [23.9011, 49.9666], [23.923, 49.9763], [23.9279, 49.9847], [23.927, 49.9885], [23.9315, 49.9896], [23.9466, 49.9814], [23.9586, 49.9796], [23.9699, 49.9747], [23.9748, 49.9748], [23.9782, 49.9767], [23.9745, 49.9877], [23.9792, 49.9931], [23.9929, 49.992], [24.0233, 49.9815], [24.0196, 49.9757], [24.0234, 49.9706], [24.0217, 49.9644], [24.0281, 49.962], [24.0235, 49.945], [24.0583, 49.9428], [24.0574, 49.9399], [24.0808, 49.9386], [24.0964, 49.9405], [24.1345, 49.9338], [24.1708, 49.9326], [24.1684, 49.9241], [24.1697, 49.9196], [24.1647, 49.9157], [24.1629, 49.9076], [24.1274, 49.9137], [24.1235, 49.9061], [24.1282, 49.9054], [24.1285, 49.902], [24.1243, 49.8927], [24.0895, 49.8898], [24.086, 49.8828], [24.0896, 49.8813], [24.0788, 49.8742], [24.0761, 49.8748], [24.0775, 49.8703], [24.0892, 49.8702], [24.0909, 49.8651]]]]}}, {"type": "Feature", "properties": {"regionId": "mykolaivska-oblast", "name": "Миколаївська міська громада", "cityId": "mykolaivska-oblast__city"}, "geometry": {"type": "MultiPolygon", "coordinates": [[[[32.0358, 47.0427], [32.0363, 47.0386], [32.0312, 47.0329], [32.0201, 47.0259], [32.0244, 47.0127], [32.0329, 47.0096], [32.0389, 47.0], [32.0526, 46.9991], [32.0509, 46.995], [32.0537, 46.9927], [32.0559, 46.9875], [32.0697, 46.9845], [32.0693, 46.9824], [32.0772, 46.9856], [32.099, 46.9854], [32.0986, 46.9747], [32.1039, 46.9776], [32.1127, 46.9696], [32.1047, 46.9576], [32.0983, 46.9546], [32.1039, 46.9515], [32.125, 46.9549], [32.1344, 46.9461], [32.0884, 46.9253], [32.0906, 46.9242], [32.0886, 46.9188], [32.0811, 46.9093], [32.101, 46.9118], [32.101, 46.9138], [32.106, 46.9142], [32.1052, 46.9102], [32.1123, 46.9083], [32.1061, 46.9021], [32.104, 46.9023], [32.1022, 46.8994], [32.1034, 46.8981], [32.1026, 46.8945], [32.1006, 46.8917], [32.0889, 46.8872], [32.0853, 46.8811], [32.0803, 46.8773], [32.0648, 46.8697], [32.0504, 46.865], [32.0426, 46.8602], [32.0406, 46.8505], [32.0321, 46.8486], [32.0296, 46.8304], [32.0278, 46.829], [32.0128, 46.8273], [32.0111, 46.8325], [32.0005, 46.8319], [31.9957, 46.829], [31.9887, 46.82], [31.9516, 46.82], [31.9504, 46.8272], [31.9463, 46.8304], [31.9471, 46.8319], [31.952, 46.8319], [31.9545, 46.8337], [31.9506, 46.8358], [31.9581, 46.8358], [31.9713, 46.8417], [31.9726, 46.8411], [31.9854, 46.85], [31.9855, 46.8513], [31.9798, 46.8534], [31.9829, 46.8578], [31.9706, 46.8634], [32.0036, 46.8887], [32.0072, 46.896], [32.0101, 46.9194], [31.9762, 46.918], [31.9785, 46.9235], [31.9748, 46.9246], [31.9668, 46.9209], [31.9562, 46.9209], [31.9537, 46.9181], [31.9332, 46.9202], [31.9304, 46.9192], [31.9301, 46.9219], [31.9156, 46.926], [31.9113, 46.9248], [31.9074, 46.9262], [31.9048, 46.9304], [31.895, 46.9335], [31.8893, 46.9517], [31.9053, 46.959], [31.9081, 46.9648], [31.9255, 46.9811], [31.9189, 46.9854], [31.9185, 46.9878], [31.8924, 46.9829], [31.8841, 46.9847], [31.8838, 46.9959], [31.8877, 47.0085], [31.8925, 47.0101], [31.8967, 47.0143], [31.9038, 47.0253], [31.9175, 47.0325], [31.9329, 47.0368], [31.9475, 47.0382], [31.9699, 47.0368], [31.9741, 47.0405], [31.9813, 47.0431], [31.997, 47.0423], [32.028, 47.047], [32.0355, 47.047], [32.0358, 47.0427]]]]}}, {"type": "Feature", "properties": {"regionId": "odeska-oblast", "name": "Одеська міська громада", "cityId": "odeska-oblast__city"}, "geometry": {"type": "MultiPolygon", "coordinates": [[[[30.806, 46.5914], [30.7974, 46.5769], [30.8056, 46.5753], [30.8071, 46.5718], [30.8031, 46.5687], [30.7847, 46.5638], [30.7847, 46.5571], [30.7616, 46.5507], [30.7491, 46.5431], [30.7433, 46.5378], [30.7363, 46.5277], [30.7334, 46.5155], [30.7308, 46.5142], [30.7359, 46.5125], [30.7307, 46.5129], [30.7294, 46.5112], [30.7292, 46.5087], [30.7309, 46.5079], [30.7296, 46.507], [30.7303, 46.5029], [30.7331, 46.504], [30.7344, 46.5027], [30.73, 46.4993], [30.7343, 46.5], [30.7326, 46.4975], [30.7347, 46.4961], [30.7366, 46.4979], [30.7407, 46.4969], [30.738, 46.4968], [30.7354, 46.4945], [30.7385, 46.4931], [30.7424, 46.4958], [30.744, 46.4949], [30.7418, 46.4921], [30.7445, 46.4906], [30.7483, 46.4922], [30.7464, 46.4899], [30.7473, 46.489], [30.7513, 46.4897], [30.7522, 46.4882], [30.7509, 46.4875], [30.7561, 46.485], [30.7548, 46.4905], [30.7566, 46.4921], [30.7581, 46.4914], [30.7572, 46.4895], [30.7597, 46.4835], [30.7653, 46.4766], [30.7625, 46.4635], [30.7716, 46.4479], [30.7703, 46.433], [30.7553, 46.4014], [30.7495, 46.385], [30.7492, 46.3807], [30.7511, 46.3763], [30.7422, 46.3751], [30.7148, 46.3595], [30.6957, 46.3392], [30.6903, 46.3391], [30.6919, 46.3434], [30.6916, 46.3548], [30.6986, 46.3549], [30.6989, 46.3645], [30.7071, 46.3651], [30.7057, 46.3661], [30.7085, 46.3675], [30.7011, 46.3729], [30.7105, 46.378], [30.7076, 46.3874], [30.7018, 46.3858], [30.711, 46.4049], [30.7054, 46.4088], [30.6812, 46.4088], [30.6762, 46.4144], [30.6733, 46.4138], [30.6725, 46.4162], [30.6626, 46.4229], [30.6534, 46.423], [30.6593, 46.429], [30.6459, 46.4267], [30.6428, 46.4358], [30.6455, 46.4481], [30.6528, 46.4515], [30.6443, 46.4623], [30.6437, 46.4666], [30.6186, 46.4648], [30.6112, 46.5021], [30.6274, 46.5035], [30.6351, 46.4958], [30.6417, 46.4975], [30.6526, 46.4944], [30.6534, 46.4978], [30.6744, 46.4983], [30.6732, 46.5008], [30.6757, 46.5017], [30.6718, 46.5086], [30.6674, 46.5078], [30.6641, 46.5121], [30.6804, 46.5192], [30.6867, 46.517], [30.6791, 46.5227], [30.6752, 46.5288], [30.6735, 46.5353], [30.6678, 46.5379], [30.6654, 46.5421], [30.6783, 46.5432], [30.6966, 46.5548], [30.7196, 46.5536], [30.72, 46.552], [30.723, 46.5513], [30.7295, 46.5519], [30.7306, 46.553], [30.723, 46.563], [30.7174, 46.5762], [30.7208, 46.577], [30.7234, 46.5679], [30.7319, 46.5622], [30.7407, 46.5617], [30.7575, 46.5654], [30.7591, 46.5676], [30.7582, 46.575], [30.7605, 46.5798], [30.769, 46.585], [30.7749, 46.5859], [30.7831, 46.5944], [30.7896, 46.5971], [30.7911, 46.6042], [30.7993, 46.6022], [30.7988, 46.5973], [30.8068, 46.5933], [30.806, 46.5914]]]]}}, {"type": "Feature", "properties": {"regionId": "poltavska-oblast", "name": "Полтавська міська громада", "cityId": "poltavska-oblast__city"}, "geometry": {"type": "MultiPolygon", "coordinates": [[[[34.589, 49.637], [34.5966, 49.6368], [34.5972, 49.6355], [34.5946, 49.633], [34.5961, 49.6307], [34.6086, 49.6315], [34.6169, 49.6342], [34.6243, 49.6329], [34.6275, 49.6296], [34.6271, 49.6253], [34.6248, 49.6208], [34.6197, 49.62], [34.6198, 49.6167], [34.6268, 49.6173], [34.6364, 49.6228], [34.6543, 49.6275], [34.6582, 49.6272], [34.6599, 49.6243], [34.6773, 49.6217], [34.6788, 49.6201], [34.7024, 49.6209], [34.7157, 49.6232], [34.7305, 49.6351], [34.7308, 49.6313], [34.733, 49.6286], [34.7367, 49.6279], [34.7368, 49.6238], [34.7405, 49.6228], [34.7385, 49.6212], [34.7322, 49.6214], [34.7326, 49.6179], [34.7359, 49.6155], [34.7317, 49.6122], [34.7286, 49.6135], [34.7259, 49.612], [34.7179, 49.6116], [34.7167, 49.6096], [34.7203, 49.6057], [34.7248, 49.6051], [34.7438, 49.594], [34.7386, 49.5938], [34.7641, 49.579], [34.7685, 49.5744], [34.7577, 49.5697], [34.7747, 49.5547], [34.7395, 49.5496], [34.6998, 49.5606], [34.6647, 49.5666], [34.6646, 49.5734], [34.6617, 49.5744], [34.6248, 49.5764], [34.6183, 49.5741], [34.617, 49.5709], [34.6077, 49.5695], [34.6076, 49.5679], [34.6047, 49.5669], [34.6045, 49.5643], [34.5975, 49.5581], [34.5774, 49.5574], [34.5659, 49.5545], [34.544, 49.5565], [34.5438, 49.554], [34.5462, 49.5539], [34.5463, 49.5517], [34.541, 49.5521], [34.541, 49.5466], [34.531, 49.5466], [34.5303, 49.5509], [34.518, 49.5517], [34.5121, 49.5464], [34.507, 49.5498], [34.504, 49.5489], [34.4982, 49.5536], [34.4923, 49.5541], [34.4913, 49.5564], [34.4937, 49.5563], [34.4937, 49.5596], [34.491, 49.5653], [34.4865, 49.5648], [34.4877, 49.563], [34.4806, 49.5626], [34.4834, 49.5614], [34.4796, 49.5603], [34.4853, 49.5583], [34.485, 49.5555], [34.481, 49.5506], [34.4809, 49.5476], [34.4752, 49.5472], [34.4763, 49.5449], [34.4723, 49.5439], [34.4697, 49.5407], [34.4639, 49.5436], [34.4522, 49.5446], [34.4503, 49.5488], [34.4388, 49.5484], [34.4349, 49.5462], [34.4347, 49.5439], [34.4151, 49.5464], [34.4156, 49.5495], [34.3988, 49.5594], [34.3636, 49.5661], [34.3697, 49.5731], [34.3665, 49.5759], [34.3661, 49.5737], [34.3631, 49.5753], [34.3609, 49.5733], [34.3428, 49.5769], [34.3376, 49.5742], [34.3347, 49.5756], [34.3363, 49.5723], [34.3346, 49.572], [34.3312, 49.5749], [34.3266, 49.5747], [34.3239, 49.5742], [34.3273, 49.5709], [34.3199, 49.5727], [34.3153, 49.5712], [34.3067, 49.5785], [34.309, 49.5802], [34.3083, 49.5815], [34.2962, 49.5799], [34.2953, 49.5817], [34.29, 49.5813], [34.2863, 49.5842], [34.2828, 49.5805], [34.2804, 49.5814], [34.2799, 49.5761], [34.2755, 49.574], [34.2753, 49.5713], [34.2806, 49.5693], [34.2781, 49.5684], [34.2766, 49.5648], [34.2729, 49.5648], [34.2738, 49.5633], [34.2704, 49.5627], [34.2693, 49.5597], [34.2618, 49.5607], [34.2591, 49.5633], [34.2468, 49.5684], [34.2485, 49.5828], [34.2339, 49.5959], [34.2201, 49.5935], [34.2179, 49.6325], [34.2288, 49.6281], [34.2404, 49.6296], [34.2374, 49.6341], [34.2622, 49.6428], [34.2616, 49.6613], [34.2557, 49.6618], [34.2559, 49.6811], [34.2497, 49.6842], [34.2533, 49.69], [34.2184, 49.7031], [34.2132, 49.701], [34.2096, 49.7046], [34.2105, 49.7071], [34.2219, 49.7107], [34.2222, 49.7184], [34.225, 49.7205], [34.237, 49.7223], [34.2355, 49.7281], [34.2413, 49.7309], [34.2392, 49.7339], [34.2418, 49.7352], [34.2402, 49.7379], [34.2469, 49.7379], [34.2662, 49.7447], [34.2765, 49.7395], [34.3655, 49.71], [34.3702, 49.7064], [34.3783, 49.7059], [34.3812, 49.7085], [34.3927, 49.7084], [34.4054, 49.7122], [34.4129, 49.7056], [34.4204, 49.7058], [34.4234, 49.6994], [34.4408, 49.701], [34.4538, 49.6959], [34.4624, 49.705], [34.4679, 49.7043], [34.4776, 49.7095], [34.4889, 49.7112], [34.4982, 49.7219], [34.5105, 49.7289], [34.5104, 49.7322], [34.5267, 49.7327], [34.5272, 49.7296], [34.5411, 49.7294], [34.5436, 49.7213], [34.5748, 49.7199], [34.6005, 49.711], [34.6179, 49.7128], [34.6237, 49.718], [34.6309, 49.7181], [34.6326, 49.7148], [34.6276, 49.7149], [34.6275, 49.712], [34.6391, 49.7054], [34.6384, 49.7025], [34.6328, 49.7019], [34.6309, 49.6973], [34.64, 49.6964], [34.6445, 49.6988], [34.6524, 49.6959], [34.6513, 49.6877], [34.6389, 49.6878], [34.6388, 49.685], [34.6424, 49.6853], [34.6455, 49.6814], [34.6499, 49.6799], [34.6378, 49.6806], [34.6379, 49.6772], [34.6402, 49.6763], [34.6363, 49.6723], [34.6383, 49.6704], [34.635, 49.6691], [34.6359, 49.6643], [34.628, 49.6618], [34.6195, 49.6484], [34.6236, 49.6461], [34.6224, 49.6399], [34.6132, 49.6434], [34.6131, 49.6459], [34.61, 49.6464], [34.6023, 49.6434], [34.6014, 49.6414], [34.5985, 49.6407], [34.5936, 49.6424], [34.5877, 49.6407], [34.589, 49.637]]]]}}, {"type": "Feature", "properties": {"regionId": "rivnenska-oblast", "name": "Рівненська міська громада", "cityId": "rivnenska-oblast__city"}, "geometry": {"type": "MultiPolygon", "coordinates": [[[[26.2728, 50.5692], [26.2766, 50.5655], [26.28, 50.5645], [26.2753, 50.5599], [26.2753, 50.5581], [26.2817, 50.5551], [26.2838, 50.5504], [26.2794, 50.5444], [26.2686, 50.5414], [26.2701, 50.5446], [26.2683, 50.55], [26.2628, 50.5557], [26.2602, 50.5541], [26.2549, 50.5547], [26.252, 50.5676], [26.2502, 50.569], [26.2512, 50.5706], [26.243, 50.5789], [26.2369, 50.5883], [26.2314, 50.5857], [26.2278, 50.5881], [26.2202, 50.5894], [26.2213, 50.5937], [26.2354, 50.5907], [26.2319, 50.5975], [26.207, 50.5993], [26.2027, 50.6025], [26.1994, 50.5996], [26.1906, 50.5989], [26.1902, 50.5964], [26.1873, 50.5968], [26.1838, 50.5944], [26.1812, 50.5981], [26.1792, 50.597], [26.1753, 50.5987], [26.1716, 50.5972], [26.1699, 50.5987], [26.1684, 50.5979], [26.1656, 50.5994], [26.1672, 50.6021], [26.1512, 50.6083], [26.1508, 50.611], [26.153, 50.6115], [26.153, 50.6142], [26.1855, 50.6197], [26.1825, 50.6265], [26.1999, 50.6282], [26.1993, 50.6325], [26.1938, 50.6347], [26.1934, 50.636], [26.1954, 50.6372], [26.1944, 50.6397], [26.1895, 50.6392], [26.1885, 50.6408], [26.1925, 50.6432], [26.1907, 50.6445], [26.1966, 50.6465], [26.1982, 50.6455], [26.2031, 50.6465], [26.205, 50.645], [26.2052, 50.6473], [26.2125, 50.6477], [26.2159, 50.6451], [26.2249, 50.6462], [26.2221, 50.6491], [26.2278, 50.6499], [26.2257, 50.6518], [26.2287, 50.6527], [26.2321, 50.6502], [26.2333, 50.6523], [26.2382, 50.6521], [26.2392, 50.6503], [26.2414, 50.6525], [26.2438, 50.6517], [26.243, 50.6502], [26.2451, 50.6501], [26.2457, 50.6415], [26.2498, 50.6454], [26.2472, 50.6463], [26.2528, 50.6521], [26.2548, 50.652], [26.2545, 50.6487], [26.2577, 50.6486], [26.2571, 50.6477], [26.2649, 50.6471], [26.272, 50.6495], [26.2761, 50.6479], [26.2809, 50.6447], [26.2777, 50.6419], [26.2872, 50.6339], [26.2879, 50.6322], [26.2862, 50.6293], [26.2954, 50.629], [26.2993, 50.632], [26.3075, 50.6319], [26.3081, 50.6328], [26.3046, 50.6359], [26.313, 50.6371], [26.3139, 50.6331], [26.312, 50.6294], [26.3056, 50.6265], [26.2931, 50.6251], [26.293, 50.6238], [26.2966, 50.6237], [26.2945, 50.6197], [26.3223, 50.6183], [26.3232, 50.6148], [26.3359, 50.614], [26.3368, 50.6158], [26.3399, 50.6156], [26.3401, 50.6077], [26.3295, 50.6071], [26.3276, 50.5974], [26.3236, 50.5976], [26.3232, 50.6], [26.3261, 50.6003], [26.3244, 50.6041], [26.3262, 50.6043], [26.3267, 50.6071], [26.2944, 50.6073], [26.2918, 50.6032], [26.2942, 50.6006], [26.3089, 50.6002], [26.3086, 50.6028], [26.3152, 50.6029], [26.3152, 50.5987], [26.306, 50.599], [26.306, 50.5926], [26.2992, 50.5964], [26.2956, 50.5929], [26.3026, 50.5924], [26.302, 50.591], [26.309, 50.5885], [26.3071, 50.5864], [26.2983, 50.5866], [26.2969, 50.5885], [26.294, 50.5888], [26.2931, 50.5754], [26.282, 50.5726], [26.278, 50.5739], [26.2728, 50.5692]]]]}}, {"type": "Feature", "properties": {"regionId": "sumska-oblast", "name": "Сумська міська громада", "cityId": "sumska-oblast__city"}, "geometry": {"type": "MultiPolygon", "coordinates": [[[[35.0109, 51.0028], [35.0113, 51.0012], [35.0091, 50.9988], [35.0169, 50.997], [35.017, 50.9951], [35.0093, 50.9863], [35.0205, 50.9816], [35.0201, 50.9736], [35.0314, 50.9698], [35.0304, 50.9464], [35.043, 50.9426], [35.0468, 50.9326], [35.0432, 50.931], [35.0436, 50.9272], [35.0379, 50.9242], [35.0246, 50.9294], [35.0252, 50.9352], [35.0226, 50.9361], [35.0217, 50.9347], [35.0136, 50.9338], [35.0165, 50.9366], [35.019, 50.9363], [35.0192, 50.9386], [35.0169, 50.9401], [35.0148, 50.9377], [35.007, 50.9354], [35.0049, 50.9368], [35.0068, 50.9394], [35.0042, 50.9405], [35.0045, 50.9431], [34.9964, 50.9428], [34.9935, 50.9458], [34.9302, 50.933], [34.93, 50.9371], [34.9259, 50.9412], [34.9177, 50.9384], [34.9098, 50.9381], [34.9096, 50.9429], [34.9037, 50.9434], [34.9041, 50.9456], [34.9014, 50.9477], [34.8983, 50.9463], [34.8976, 50.9439], [34.8928, 50.9427], [34.8796, 50.9436], [34.8775, 50.9459], [34.8675, 50.9459], [34.8683, 50.9424], [34.8617, 50.9414], [34.8611, 50.9427], [34.8525, 50.9427], [34.8479, 50.9375], [34.8448, 50.9367], [34.8435, 50.9294], [34.8444, 50.9246], [34.8514, 50.9065], [34.8552, 50.9068], [34.8618, 50.9011], [34.8665, 50.9008], [34.8686, 50.8946], [34.8734, 50.89], [34.8908, 50.8911], [34.9152, 50.8871], [34.9143, 50.8821], [34.9082, 50.8807], [34.9088, 50.879], [34.9136, 50.8747], [34.923, 50.8736], [34.9114, 50.8602], [34.9139, 50.8564], [34.9074, 50.8524], [34.9, 50.8506], [34.8947, 50.8442], [34.8753, 50.8442], [34.866, 50.8569], [34.8537, 50.8534], [34.8535, 50.8601], [34.8507, 50.8641], [34.8276, 50.8606], [34.8093, 50.869], [34.7903, 50.8615], [34.776, 50.8699], [34.7649, 50.8628], [34.7615, 50.8657], [34.7403, 50.857], [34.7282, 50.858], [34.7281, 50.8612], [34.7429, 50.8657], [34.7505, 50.8748], [34.7491, 50.8776], [34.7413, 50.8735], [34.7324, 50.8795], [34.736, 50.8816], [34.7292, 50.8871], [34.7357, 50.8941], [34.7555, 50.9012], [34.7567, 50.9094], [34.7555, 50.9169], [34.732, 50.9202], [34.7237, 50.929], [34.7004, 50.9287], [34.6917, 50.9325], [34.69, 50.938], [34.7197, 50.9372], [34.717, 50.946], [34.682, 50.965], [34.6925, 50.9674], [34.7033, 50.9634], [34.7122, 50.9698], [34.7142, 50.9735], [34.723, 50.9736], [34.722, 50.976], [34.7315, 50.9774], [34.7358, 50.9737], [34.741, 50.9755], [34.7316, 50.9872], [34.7121, 50.9895], [34.7061, 50.993], [34.7017, 50.9997], [34.7012, 51.0055], [34.7068, 51.0154], [34.7096, 51.0177], [34.7262, 51.0123], [34.7354, 51.0127], [34.7521, 51.0227], [34.751, 51.0397], [34.7545, 51.0427], [34.7632, 51.0424], [34.7646, 51.0574], [34.7742, 51.0559], [34.7961, 51.0564], [34.8025, 51.0571], [34.8061, 51.0602], [34.8084, 51.0585], [34.8076, 51.0549], [34.8159, 51.051], [34.8373, 51.0481], [34.8369, 51.0519], [34.8399, 51.0545], [34.8455, 51.0545], [34.8495, 51.058], [34.8722, 51.0531], [34.8785, 51.0494], [34.8748, 51.0418], [34.8757, 51.0348], [34.8708, 51.0307], [34.872, 51.028], [34.8673, 51.0247], [34.8638, 51.0194], [34.8578, 51.0179], [34.8581, 51.0132], [34.863, 51.0134], [34.8689, 51.0087], [34.8833, 51.0164], [34.8836, 51.0182], [34.8887, 51.0218], [34.8894, 51.0245], [34.8949, 51.0272], [34.9043, 51.0281], [34.907, 51.0301], [34.9075, 51.0363], [34.9254, 51.0459], [34.9423, 51.05], [34.9457, 51.0487], [34.9659, 51.0512], [34.9742, 51.0506], [34.9795, 51.0524], [34.9972, 51.0539], [35.0083, 51.058], [35.0119, 51.0575], [35.022, 51.0504], [35.0295, 51.0498], [35.0365, 51.0447], [35.0386, 51.0417], [35.0398, 51.0347], [35.0461, 51.0318], [35.0439, 51.0252], [35.0392, 51.0216], [35.0394, 51.0177], [35.0349, 51.0143], [35.0221, 51.0104], [35.0109, 51.0028]]]]}}, {"type": "Feature", "properties": {"regionId": "ternopilska-oblast", "name": "Тернопільська міська громада", "cityId": "ternopilska-oblast__city"}, "geometry": {"type": "MultiPolygon", "coordinates": [[[[25.5538, 49.597], [25.5569, 49.5906], [25.5698, 49.582], [25.5658, 49.5757], [25.5725, 49.5781], [25.577, 49.5766], [25.5802, 49.5802], [25.5865, 49.5778], [25.5853, 49.5817], [25.5887, 49.5826], [25.591, 49.5782], [25.6059, 49.5835], [25.6211, 49.5806], [25.6232, 49.582], [25.6381, 49.5812], [25.6404, 49.579], [25.653, 49.5655], [25.6522, 49.5633], [25.6556, 49.5617], [25.6499, 49.557], [25.6458, 49.5453], [25.6379, 49.547], [25.6343, 49.5379], [25.6316, 49.5358], [25.6178, 49.5359], [25.6182, 49.5341], [25.6217, 49.5325], [25.6202, 49.5308], [25.6162, 49.5293], [25.6089, 49.5311], [25.608, 49.5259], [25.6099, 49.5255], [25.6103, 49.5163], [25.6128, 49.5192], [25.6179, 49.5201], [25.6356, 49.5155], [25.6349, 49.5127], [25.6187, 49.512], [25.6183, 49.5095], [25.6244, 49.5082], [25.623, 49.5046], [25.6111, 49.5067], [25.6057, 49.5054], [25.5979, 49.5215], [25.5879, 49.5286], [25.5878, 49.53], [25.5932, 49.5323], [25.5899, 49.539], [25.5847, 49.5382], [25.5774, 49.5401], [25.5749, 49.5399], [25.575, 49.538], [25.5663, 49.5381], [25.566, 49.5412], [25.5556, 49.5426], [25.5548, 49.5382], [25.5502, 49.5391], [25.5477, 49.5451], [25.5441, 49.5465], [25.5462, 49.5486], [25.5439, 49.5576], [25.5114, 49.5543], [25.5086, 49.5669], [25.5102, 49.5696], [25.4898, 49.5766], [25.479, 49.5781], [25.4334, 49.5961], [25.4378, 49.602], [25.4482, 49.6107], [25.4504, 49.6196], [25.4537, 49.6241], [25.4628, 49.63], [25.4609, 49.6343], [25.464, 49.6363], [25.4613, 49.6388], [25.4658, 49.639], [25.4656, 49.6406], [25.4334, 49.6744], [25.425, 49.6794], [25.4281, 49.682], [25.4235, 49.6857], [25.4207, 49.6836], [25.4124, 49.6889], [25.4108, 49.696], [25.4084, 49.6991], [25.3958, 49.7073], [25.3732, 49.7169], [25.3516, 49.7296], [25.3633, 49.7392], [25.366, 49.738], [25.3725, 49.7416], [25.375, 49.7485], [25.3802, 49.7507], [25.3877, 49.7477], [25.4072, 49.7493], [25.4208, 49.7433], [25.4313, 49.7352], [25.4333, 49.7365], [25.4229, 49.747], [25.3977, 49.7574], [25.3912, 49.771], [25.3916, 49.7725], [25.4128, 49.7605], [25.4193, 49.7606], [25.4226, 49.7567], [25.4352, 49.7536], [25.4344, 49.7595], [25.4366, 49.7706], [25.4555, 49.7564], [25.4556, 49.7467], [25.4507, 49.7402], [25.4654, 49.7383], [25.4836, 49.7312], [25.4881, 49.7257], [25.5306, 49.7112], [25.5299, 49.7083], [25.5332, 49.7061], [25.5307, 49.7008], [25.5293, 49.6889], [25.5297, 49.6745], [25.5212, 49.6675], [25.5143, 49.6693], [25.511, 49.6675], [25.5035, 49.6681], [25.4983, 49.6663], [25.4923, 49.6582], [25.4984, 49.6528], [25.5225, 49.6483], [25.5235, 49.6457], [25.5221, 49.6419], [25.519, 49.6393], [25.4986, 49.6388], [25.4945, 49.6368], [25.4916, 49.6319], [25.4922, 49.6221], [25.497, 49.6138], [25.4788, 49.6103], [25.4722, 49.607], [25.4703, 49.6052], [25.4704, 49.6005], [25.4665, 49.5964], [25.4756, 49.5944], [25.4763, 49.5921], [25.4806, 49.5907], [25.5538, 49.597]]]]}}, {"type": "Feature", "properties": {"regionId": "kharkivska-oblast", "name": "Харківська міська громада", "cityId": "kharkivska-oblast__city"}, "geometry": {"type": "MultiPolygon", "coordinates": [[[[36.2628, 50.0884], [36.2599, 50.0872], [36.2611, 50.085], [36.2775, 50.0742], [36.2786, 50.0664], [36.293, 50.0637], [36.2941, 50.0665], [36.3013, 50.0669], [36.3032, 50.0607], [36.307, 50.0554], [36.3095, 50.0566], [36.3137, 50.0538], [36.3284, 50.0598], [36.3291, 50.0625], [36.3335, 50.0637], [36.3382, 50.0581], [36.351, 50.062], [36.3534, 50.061], [36.3534, 50.0585], [36.3575, 50.058], [36.3548, 50.0542], [36.3592, 50.0526], [36.3535, 50.0455], [36.3733, 50.0383], [36.3687, 50.0323], [36.3785, 50.0213], [36.3608, 50.0114], [36.3618, 50.0104], [36.3582, 50.0085], [36.3668, 50.0048], [36.3589, 50.0022], [36.3589, 50.0], [36.3688, 49.9929], [36.3658, 49.9906], [36.3684, 49.9822], [36.3715, 49.9832], [36.3736, 49.9809], [36.3718, 49.9779], [36.3739, 49.9749], [36.3758, 49.976], [36.3807, 49.9742], [36.3917, 49.9741], [36.3947, 49.9716], [36.4031, 49.9721], [36.4056, 49.9647], [36.4053, 49.9601], [36.4306, 49.9454], [36.4301, 49.9347], [36.4538, 49.9272], [36.4507, 49.9215], [36.4524, 49.9132], [36.4514, 49.9104], [36.4467, 49.9103], [36.447, 49.9076], [36.4413, 49.9048], [36.4304, 49.9043], [36.4073, 49.8993], [36.4003, 49.9028], [36.4086, 49.9098], [36.4001, 49.9157], [36.3994, 49.9183], [36.4011, 49.9208], [36.3752, 49.9275], [36.3655, 49.925], [36.3642, 49.931], [36.3552, 49.9305], [36.344, 49.925], [36.3305, 49.9281], [36.3268, 49.9316], [36.3361, 49.9358], [36.3366, 49.9382], [36.3339, 49.9468], [36.3311, 49.9483], [36.3259, 49.9453], [36.3205, 49.9444], [36.3201, 49.9416], [36.317, 49.9387], [36.302, 49.9356], [36.3111, 49.9295], [36.31, 49.9274], [36.3114, 49.9247], [36.3095, 49.9231], [36.3046, 49.9222], [36.3009, 49.9234], [36.2959, 49.9214], [36.293, 49.9184], [36.288, 49.9166], [36.2872, 49.9109], [36.2807, 49.9081], [36.2908, 49.8849], [36.2808, 49.8828], [36.2736, 49.8852], [36.2715, 49.8841], [36.2582, 49.8848], [36.2512, 49.881], [36.2501, 49.8783], [36.2467, 49.8782], [36.2426, 49.8792], [36.235, 49.8889], [36.2327, 49.8894], [36.2263, 49.8851], [36.2213, 49.8864], [36.2126, 49.8925], [36.2157, 49.9063], [36.2147, 49.91], [36.208, 49.9157], [36.1972, 49.9209], [36.1834, 49.9213], [36.185, 49.9248], [36.181, 49.9385], [36.159, 49.935], [36.1572, 49.9331], [36.1596, 49.9285], [36.1578, 49.9267], [36.1491, 49.9278], [36.148, 49.9232], [36.1372, 49.9222], [36.1357, 49.9258], [36.1312, 49.9263], [36.1307, 49.9277], [36.134, 49.9292], [36.1402, 49.9392], [36.1322, 49.9405], [36.1295, 49.951], [36.1317, 49.9586], [36.1361, 49.9653], [36.1394, 49.9654], [36.146, 49.9624], [36.1442, 49.9668], [36.1469, 49.9711], [36.129, 49.9761], [36.1196, 49.976], [36.1155, 49.9777], [36.1156, 49.9815], [36.1069, 49.9823], [36.1116, 49.9901], [36.1312, 49.9915], [36.1314, 49.9928], [36.1271, 49.9962], [36.1221, 50.0167], [36.1367, 50.011], [36.1664, 50.0113], [36.166, 50.0204], [36.1714, 50.0205], [36.1721, 50.0241], [36.1707, 50.0275], [36.1575, 50.0314], [36.158, 50.0341], [36.1613, 50.0355], [36.1551, 50.0412], [36.1558, 50.0426], [36.1639, 50.0413], [36.172, 50.0422], [36.1686, 50.0496], [36.1739, 50.0514], [36.1731, 50.0535], [36.1842, 50.0617], [36.1847, 50.0649], [36.1878, 50.068], [36.1912, 50.069], [36.1962, 50.0673], [36.1993, 50.071], [36.2045, 50.0707], [36.2091, 50.0768], [36.218, 50.0759], [36.2228, 50.0852], [36.2325, 50.0859], [36.2276, 50.0809], [36.2275, 50.0783], [36.2304, 50.0767], [36.247, 50.0832], [36.2443, 50.087], [36.2577, 50.0952], [36.2641, 50.0944], [36.2628, 50.0884]]]]}}, {"type": "Feature", "properties": {"regionId": "khersonska-oblast", "name": "Херсонська міська громада", "cityId": "khersonska-oblast__city"}, "geometry": {"type": "MultiPolygon", "coordinates": [[[[32.5255, 46.6802], [32.5426, 46.6815], [32.5473, 46.6801], [32.5491, 46.6747], [32.5553, 46.6759], [32.5554, 46.6776], [32.5634, 46.6829], [32.5673, 46.6837], [32.5704, 46.6821], [32.5708, 46.692], [32.5663, 46.6997], [32.5731, 46.7013], [32.5656, 46.7189], [32.5856, 46.7198], [32.5983, 46.7224], [32.5887, 46.7626], [32.5974, 46.7639], [32.5941, 46.7785], [32.6471, 46.7875], [32.6449, 46.797], [32.627, 46.795], [32.6145, 46.8457], [32.6196, 46.8463], [32.6265, 46.8445], [32.6434, 46.8469], [32.6413, 46.8562], [32.6901, 46.8628], [32.7001, 46.8225], [32.7017, 46.8209], [32.7077, 46.8212], [32.691, 46.7744], [32.7236, 46.7766], [32.725, 46.7663], [32.7338, 46.7663], [32.7283, 46.7618], [32.7321, 46.7547], [32.7339, 46.7553], [32.7398, 46.7505], [32.7379, 46.7446], [32.7405, 46.7358], [32.7538, 46.7224], [32.7632, 46.7166], [32.7718, 46.7131], [32.7837, 46.7115], [32.8134, 46.7141], [32.8218, 46.7119], [32.8297, 46.7067], [32.8289, 46.6965], [32.8262, 46.693], [32.8136, 46.6842], [32.811, 46.6844], [32.796, 46.6779], [32.7728, 46.6726], [32.7531, 46.6724], [32.7229, 46.675], [32.6749, 46.6576], [32.6707, 46.658], [32.667, 46.6606], [32.635, 46.6335], [32.6073, 46.6192], [32.5888, 46.6046], [32.5814, 46.6019], [32.5675, 46.6019], [32.5474, 46.5978], [32.5453, 46.6005], [32.5525, 46.6085], [32.554, 46.6144], [32.5518, 46.6224], [32.5483, 46.6269], [32.5458, 46.6255], [32.5449, 46.6286], [32.5424, 46.6301], [32.5295, 46.6325], [32.5312, 46.6335], [32.5209, 46.6327], [32.5193, 46.6341], [32.4872, 46.6292], [32.4863, 46.6263], [32.4797, 46.626], [32.4758, 46.6215], [32.4723, 46.6136], [32.4702, 46.6129], [32.4713, 46.6193], [32.4677, 46.625], [32.4675, 46.6306], [32.4659, 46.6324], [32.4595, 46.636], [32.4503, 46.6374], [32.4482, 46.6394], [32.4474, 46.6473], [32.4392, 46.6463], [32.4362, 46.6499], [32.427, 46.6506], [32.4271, 46.6563], [32.4143, 46.7075], [32.4277, 46.7084], [32.4265, 46.7171], [32.4518, 46.7199], [32.4628, 46.6994], [32.533, 46.691], [32.532, 46.6853], [32.5255, 46.6802]]]]}}, {"type": "Feature", "properties": {"regionId": "khmelnytska-oblast", "name": "Хмельницька міська громада", "cityId": "khmelnytska-oblast__city"}, "geometry": {"type": "MultiPolygon", "coordinates": [[[[27.2913, 49.3229], [27.2869, 49.3181], [27.2872, 49.3154], [27.2999, 49.3124], [27.2986, 49.3046], [27.2847, 49.3059], [27.2761, 49.3105], [27.2697, 49.3119], [27.248, 49.3024], [27.2365, 49.3006], [27.2348, 49.3041], [27.2308, 49.306], [27.2238, 49.3063], [27.2154, 49.3101], [27.2151, 49.3123], [27.2124, 49.3132], [27.2015, 49.3126], [27.1889, 49.3171], [27.1851, 49.3151], [27.1817, 49.3172], [27.1742, 49.3169], [27.1613, 49.3232], [27.1551, 49.3187], [27.1406, 49.3243], [27.1378, 49.3274], [27.1332, 49.3252], [27.1298, 49.3269], [27.1249, 49.3268], [27.1241, 49.3293], [27.1173, 49.3335], [27.1048, 49.3392], [27.0739, 49.3452], [27.0758, 49.3554], [27.0514, 49.3583], [27.0479, 49.3617], [27.0349, 49.363], [27.0194, 49.3616], [26.9945, 49.3725], [26.9809, 49.3729], [26.9806, 49.3753], [26.9659, 49.3759], [26.9656, 49.3723], [26.9613, 49.372], [26.9552, 49.3776], [26.9485, 49.3759], [26.9391, 49.3786], [26.9348, 49.3917], [26.9249, 49.3901], [26.9184, 49.3927], [26.9415, 49.3997], [26.9421, 49.4033], [26.9353, 49.4086], [26.9264, 49.4064], [26.9231, 49.4068], [26.9227, 49.4095], [26.9085, 49.3928], [26.9045, 49.3924], [26.8975, 49.3986], [26.8903, 49.3961], [26.8851, 49.3963], [26.881, 49.4004], [26.8798, 49.404], [26.8703, 49.3999], [26.8629, 49.399], [26.8553, 49.4021], [26.8452, 49.4009], [26.8334, 49.4022], [26.8141, 49.3984], [26.8075, 49.3986], [26.7937, 49.3936], [26.781, 49.3961], [26.7736, 49.3913], [26.7657, 49.3954], [26.7414, 49.3925], [26.7262, 49.3968], [26.7114, 49.3969], [26.7151, 49.4247], [26.7028, 49.4252], [26.704, 49.44], [26.7069, 49.4502], [26.7143, 49.4499], [26.7161, 49.4453], [26.7307, 49.4441], [26.7296, 49.4466], [26.7417, 49.446], [26.7479, 49.4445], [26.7602, 49.4366], [26.7771, 49.4365], [26.7893, 49.4321], [26.7994, 49.4442], [26.8064, 49.4433], [26.8063, 49.4456], [26.8125, 49.4456], [26.8201, 49.4488], [26.8246, 49.4484], [26.8326, 49.4446], [26.8554, 49.4475], [26.8633, 49.4459], [26.8665, 49.443], [26.8755, 49.4408], [26.8753, 49.4313], [26.8774, 49.4263], [26.8819, 49.425], [26.8937, 49.4258], [26.8999, 49.424], [26.909, 49.4273], [26.9149, 49.4248], [26.9182, 49.4289], [26.9231, 49.4295], [26.9269, 49.4319], [26.9235, 49.4365], [26.9134, 49.4398], [26.9135, 49.4432], [26.9069, 49.4471], [26.908, 49.4487], [26.87, 49.465], [26.8764, 49.4739], [26.8573, 49.4808], [26.8695, 49.4821], [26.8749, 49.4844], [26.878, 49.4901], [26.876, 49.494], [26.8596, 49.5115], [26.8313, 49.5281], [26.824, 49.53], [26.8192, 49.5334], [26.8357, 49.5492], [26.8413, 49.5476], [26.8548, 49.5592], [26.8675, 49.5588], [26.8719, 49.5629], [26.8781, 49.558], [26.8905, 49.5551], [26.8848, 49.5457], [26.903, 49.5438], [26.9182, 49.5479], [26.9254, 49.5407], [26.9336, 49.5391], [26.9389, 49.5398], [26.9413, 49.5441], [26.9496, 49.5443], [26.9458, 49.539], [26.9526, 49.5272], [26.9465, 49.5154], [26.9526, 49.5119], [26.9475, 49.5077], [26.949, 49.5043], [26.9539, 49.5022], [26.9529, 49.4963], [26.9678, 49.4928], [26.9741, 49.4867], [26.9818, 49.4827], [26.9857, 49.4779], [26.9838, 49.4591], [26.9998, 49.4509], [27.0078, 49.4626], [27.0118, 49.4587], [27.0205, 49.4552], [27.0218, 49.4487], [27.023, 49.4516], [27.0252, 49.4515], [27.0257, 49.4493], [27.0212, 49.4422], [27.0251, 49.4403], [27.0329, 49.4411], [27.0334, 49.4392], [27.0258, 49.4374], [27.0319, 49.4328], [27.045, 49.4382], [27.0543, 49.4458], [27.0576, 49.4459], [27.0576, 49.4412], [27.0668, 49.4411], [27.0662, 49.4337], [27.0756, 49.4359], [27.08, 49.4326], [27.0777, 49.4304], [27.0835, 49.4293], [27.0895, 49.4311], [27.0938, 49.4366], [27.0938, 49.4394], [27.0869, 49.442], [27.0872, 49.4446], [27.1009, 49.4444], [27.1023, 49.448], [27.1077, 49.4511], [27.116, 49.4518], [27.1233, 49.4493], [27.1308, 49.4566], [27.1546, 49.4648], [27.1636, 49.4622], [27.1658, 49.4565], [27.1799, 49.4563], [27.1846, 49.4597], [27.1984, 49.4514], [27.1995, 49.4477], [27.2024, 49.446], [27.2074, 49.446], [27.2121, 49.4494], [27.2132, 49.4549], [27.2193, 49.4571], [27.2424, 49.4598], [27.2632, 49.4713], [27.2646, 49.465], [27.257, 49.4587], [27.2583, 49.4539], [27.272, 49.4537], [27.2753, 49.4523], [27.2803, 49.4549], [27.2859, 49.4528], [27.2909, 49.4555], [27.312, 49.4438], [27.31, 49.4362], [27.3147, 49.433], [27.2945, 49.423], [27.2959, 49.4212], [27.2931, 49.4191], [27.3153, 49.4083], [27.3069, 49.402], [27.3139, 49.3887], [27.3136, 49.3803], [27.3021, 49.3795], [27.3027, 49.3754], [27.2851, 49.3752], [27.2843, 49.3726], [27.2902, 49.3616], [27.2847, 49.3616], [27.2817, 49.3549], [27.2766, 49.3532], [27.2777, 49.349], [27.2941, 49.3328], [27.3008, 49.3282], [27.2913, 49.3229]]]]}}, {"type": "Feature", "properties": {"regionId": "cherkaska-oblast", "name": "Черкаська міська громада", "cityId": "cherkaska-oblast__city"}, "geometry": {"type": "MultiPolygon", "coordinates": [[[[31.9797, 49.4939], [31.9934, 49.4886], [31.9974, 49.4846], [32.0022, 49.4826], [32.0159, 49.4844], [32.0189, 49.4807], [32.0145, 49.4788], [32.0267, 49.4682], [32.0422, 49.4621], [32.0525, 49.4602], [32.0527, 49.4586], [32.0551, 49.4586], [32.07, 49.4493], [32.0755, 49.4489], [32.0858, 49.4392], [32.092, 49.4401], [32.0943, 49.4437], [32.0983, 49.4417], [32.1003, 49.4385], [32.102, 49.4386], [32.102, 49.4361], [32.1107, 49.4261], [32.1113, 49.418], [32.114, 49.4173], [32.1153, 49.4147], [32.1207, 49.4138], [32.126, 49.4102], [32.1186, 49.4036], [32.1215, 49.4018], [32.1141, 49.3975], [32.1155, 49.3962], [32.092, 49.3835], [32.1032, 49.3763], [32.0949, 49.369], [32.0833, 49.3758], [32.07, 49.3648], [32.0121, 49.3918], [32.0223, 49.4012], [32.0163, 49.4038], [32.0103, 49.3989], [32.0006, 49.4023], [32.0011, 49.4051], [31.9977, 49.4086], [31.9966, 49.4075], [31.9755, 49.4118], [31.9833, 49.4315], [31.9898, 49.4321], [32.0206, 49.4492], [32.018, 49.4528], [31.9843, 49.4514], [31.9845, 49.4501], [31.9815, 49.4518], [31.9852, 49.4571], [31.9886, 49.4574], [31.9904, 49.4593], [31.9996, 49.4599], [32.0013, 49.4574], [32.0127, 49.4596], [32.0003, 49.466], [32.0004, 49.4696], [32.004, 49.4742], [32.0025, 49.4751], [31.9856, 49.4799], [31.9637, 49.4808], [31.9611, 49.4825], [31.9723, 49.4977], [31.9797, 49.4939]]], [[[31.9046, 49.4442], [31.8919, 49.4439], [31.8904, 49.4604], [31.904, 49.4604], [31.9046, 49.4442]]]]}}, {"type": "Feature", "properties": {"regionId": "chernivetska-oblast", "name": "Чернівецька міська громада", "cityId": "chernivetska-oblast__city"}, "geometry": {"type": "MultiPolygon", "coordinates": [[[[25.9605, 48.2477], [25.9659, 48.2416], [25.9639, 48.2363], [25.9681, 48.2325], [25.98, 48.2289], [25.9884, 48.217], [25.9759, 48.2162], [25.97, 48.2139], [25.9589, 48.2175], [25.9544, 48.2163], [25.9485, 48.2268], [25.9336, 48.2352], [25.9382, 48.2501], [25.9306, 48.2523], [25.9283, 48.2561], [25.9125, 48.2634], [25.9074, 48.2643], [25.9011, 48.2631], [25.8915, 48.2673], [25.8694, 48.2714], [25.855, 48.2759], [25.8479, 48.2809], [25.8315, 48.2874], [25.8095, 48.304], [25.84, 48.3096], [25.8629, 48.3103], [25.8801, 48.3086], [25.8997, 48.3132], [25.902, 48.3151], [25.8943, 48.317], [25.8918, 48.3227], [25.864, 48.3233], [25.8642, 48.3277], [25.8806, 48.3256], [25.8804, 48.3285], [25.8744, 48.3311], [25.8756, 48.3404], [25.8671, 48.3432], [25.8742, 48.3767], [25.8941, 48.3724], [25.9085, 48.3742], [25.919, 48.3696], [25.9325, 48.3705], [25.9687, 48.3833], [25.9714, 48.3817], [25.9915, 48.3969], [26.0017, 48.3974], [26.0033, 48.4023], [26.0025, 48.4072], [25.9935, 48.4071], [25.9958, 48.4135], [25.9921, 48.4154], [25.9953, 48.4216], [25.9934, 48.4256], [25.9948, 48.4264], [25.998, 48.4238], [25.9985, 48.426], [26.0025, 48.428], [26.0064, 48.4269], [26.0117, 48.4297], [26.0214, 48.4314], [26.0298, 48.4218], [26.0405, 48.4229], [26.0444, 48.4071], [26.0497, 48.3984], [26.0466, 48.3764], [26.0428, 48.3773], [26.0313, 48.3758], [26.0293, 48.3744], [26.0328, 48.3723], [26.0333, 48.3679], [26.0295, 48.3658], [26.0267, 48.3658], [26.0267, 48.3679], [26.021, 48.3652], [26.0283, 48.3613], [26.0273, 48.3558], [26.0204, 48.3501], [26.032, 48.3441], [26.0296, 48.3417], [26.0313, 48.3403], [26.0294, 48.3389], [26.0314, 48.3373], [26.0304, 48.3354], [26.0327, 48.3346], [26.0322, 48.3314], [26.0296, 48.3314], [26.0309, 48.3287], [26.0279, 48.3154], [26.0213, 48.3157], [26.0209, 48.3184], [26.0056, 48.3219], [26.0036, 48.3191], [26.0055, 48.3146], [26.0105, 48.3046], [26.015, 48.3004], [26.0086, 48.2975], [26.0056, 48.2924], [26.0014, 48.2905], [25.9999, 48.2879], [26.0055, 48.2847], [26.0086, 48.277], [26.0115, 48.2751], [26.0007, 48.2687], [25.9985, 48.2695], [25.9881, 48.2618], [25.9819, 48.2599], [25.9863, 48.2532], [25.9839, 48.2524], [25.9753, 48.2575], [25.969, 48.2556], [25.9672, 48.2533], [25.9596, 48.253], [25.9628, 48.2485], [25.9605, 48.2477]]]]}}, {"type": "Feature", "properties": {"regionId": "chernihivska-oblast", "name": "Чернігівська міська громада", "cityId": "chernihivska-oblast__city"}, "geometry": {"type": "MultiPolygon", "coordinates": [[[[31.1814, 51.4041], [31.176, 51.3929], [31.153, 51.3998], [31.1574, 51.4063], [31.1721, 51.4062], [31.1814, 51.4041]]], [[[31.2718, 51.5521], [31.27, 51.5502], [31.2704, 51.5476], [31.2738, 51.5442], [31.2782, 51.5454], [31.2775, 51.5468], [31.283, 51.5471], [31.283, 51.5445], [31.3025, 51.5458], [31.3192, 51.5417], [31.3202, 51.545], [31.3304, 51.5441], [31.3252, 51.5286], [31.3338, 51.5239], [31.34, 51.5225], [31.3452, 51.5187], [31.3505, 51.5222], [31.3463, 51.5249], [31.349, 51.531], [31.3524, 51.5302], [31.3518, 51.5276], [31.3656, 51.5304], [31.3666, 51.5327], [31.3712, 51.531], [31.3724, 51.5322], [31.379, 51.5284], [31.3763, 51.5229], [31.3729, 51.5189], [31.3695, 51.5181], [31.3706, 51.5164], [31.3681, 51.5145], [31.365, 51.5159], [31.3561, 51.5108], [31.3505, 51.5118], [31.3473, 51.5099], [31.345, 51.5021], [31.3492, 51.4957], [31.3488, 51.4931], [31.3417, 51.486], [31.3417, 51.4679], [31.3336, 51.4676], [31.3311, 51.4638], [31.3252, 51.4624], [31.3195, 51.4585], [31.3126, 51.4596], [31.3067, 51.4574], [31.3076, 51.4563], [31.305, 51.456], [31.3055, 51.447], [31.3039, 51.4453], [31.2955, 51.4489], [31.2903, 51.449], [31.2827, 51.4455], [31.2789, 51.4476], [31.2722, 51.4474], [31.2706, 51.4442], [31.2716, 51.4418], [31.257, 51.4521], [31.2559, 51.4602], [31.2332, 51.4582], [31.2316, 51.4692], [31.2393, 51.4702], [31.2392, 51.4734], [31.2431, 51.4766], [31.2345, 51.4781], [31.2356, 51.4791], [31.2353, 51.4792], [31.2323, 51.4773], [31.2307, 51.4796], [31.2327, 51.4808], [31.2325, 51.4839], [31.2445, 51.4881], [31.2478, 51.4877], [31.2468, 51.4898], [31.2495, 51.4905], [31.2484, 51.4923], [31.2329, 51.4959], [31.2309, 51.4951], [31.2334, 51.4934], [31.2279, 51.4921], [31.2299, 51.495], [31.2216, 51.4934], [31.2178, 51.4942], [31.2145, 51.4976], [31.2166, 51.5009], [31.2383, 51.5031], [31.2412, 51.5054], [31.2376, 51.5052], [31.2369, 51.511], [31.2299, 51.5142], [31.2316, 51.5153], [31.2184, 51.5181], [31.2206, 51.5212], [31.2196, 51.5227], [31.2344, 51.5266], [31.2323, 51.5282], [31.2293, 51.5267], [31.2201, 51.5327], [31.2258, 51.5382], [31.2452, 51.5333], [31.244, 51.5412], [31.2633, 51.5432], [31.2586, 51.552], [31.2739, 51.555], [31.2718, 51.5521]]]]}}]}